{
  "type": "FeatureCollection",
  "features": [
    {
      "type": "Feature",
      "geometry": {
        "type": "Point",
        "coordinates": [
          -100.286587,
          25.645697
        ]
      },
      "properties": {
        "id_punto": "25.645697_-100.286587",
        "n_registros": 111,
        "timestamp_ultimo": "2026-05-07 13:03:00",
        "timestamp_penultimo": "2026-05-07 10:27:00",
        "voltage_V_A": 121.7,
        "current_A_A": 15.78,
        "power_W_A": 1289,
        "pf_A": 0.67,
        "freq_Hz_A": 59.04,
        "energy_Wh_A": 3681,
        "energy_reverse_Wh_A": null,
        "energy_Wh_A_delta_ultimas_2": 39,
        "energy_reverse_Wh_A_delta_ultimas_2": null,
        "voltage_V_B": 0,
        "current_A_B": 15.49,
        "power_W_B": 1223,
        "pf_B": 0.64,
        "freq_Hz_B": 59.04,
        "energy_Wh_B": 3629,
        "energy_reverse_Wh_B": null,
        "energy_Wh_B_delta_ultimas_2": 39,
        "energy_reverse_Wh_B_delta_ultimas_2": null,
        "voltage_V_C": 121.7,
        "current_A_C": 0.44,
        "power_W_C": 43,
        "pf_C": 0.78,
        "freq_Hz_C": 58.93,
        "energy_Wh_C": 1647,
        "energy_reverse_Wh_C": null,
        "energy_Wh_C_delta_ultimas_2": 1,
        "energy_reverse_Wh_C_delta_ultimas_2": null,
        "voltage_V_D": 0,
        "current_A_D": 0.48,
        "power_W_D": 45,
        "pf_D": 0.76,
        "freq_Hz_D": 58.93,
        "energy_Wh_D": 1746,
        "energy_reverse_Wh_D": null,
        "energy_Wh_D_delta_ultimas_2": 1,
        "energy_reverse_Wh_D_delta_ultimas_2": null,
        "energy_Wh_delta_total_ultimas_2": 80,
        "energy_reverse_Wh_delta_total_ultimas_2": null,
        "consume15_16": 0.022,
        "consume16_17": 0.075,
        "consume17_18": 0.085,
        "consume19_20": 0.157,
        "consume22_23": 0.363,
        "consume1_2": 0.23,
        "consume4_5": 0.201,
        "consume6_7": 0.131,
        "consume8_9": 0.108,
        "consume10_11": 0.052,
        "consume13_14": 0.08,
        "consumo_ultimo_dia_kWh": 1.504,
        "timestamp_inicio_consumos": "2026-05-06 15:00:00",
        "timestamp_fin_consumos": "2026-05-07 13:00:00"
      }
    }
  ]
}