{
  "type": "FeatureCollection",
  "features": [
    {
      "type": "Feature",
      "geometry": {
        "type": "Point",
        "coordinates": [
          -100.293008,
          25.651085
        ]
      },
      "properties": {
        "id_punto": "25.651085_-100.293008",
        "n_registros": 115,
        "timestamp_ultimo": "2026-05-07 18:10:00",
        "timestamp_penultimo": "2026-05-07 17:06:00",
        "voltage_V_A": 130.9,
        "current_A_A": 72.16,
        "power_W_A": 5538,
        "pf_A": 0.58,
        "freq_Hz_A": 58.87,
        "energy_Wh_A": 12491,
        "energy_reverse_Wh_A": null,
        "energy_Wh_A_delta_ultimas_2": 61,
        "energy_reverse_Wh_A_delta_ultimas_2": null,
        "voltage_V_B": 0,
        "current_A_B": 19.29,
        "power_W_B": 1929,
        "pf_B": 0.76,
        "freq_Hz_B": 58.87,
        "energy_Wh_B": 8848,
        "energy_reverse_Wh_B": null,
        "energy_Wh_B_delta_ultimas_2": 20,
        "energy_reverse_Wh_B_delta_ultimas_2": null,
        "voltage_V_C": 132.9,
        "current_A_C": 4.492,
        "power_W_C": 445.2,
        "pf_C": 0.74,
        "freq_Hz_C": 58.84,
        "energy_Wh_C": 17587,
        "energy_reverse_Wh_C": 11905,
        "energy_Wh_C_delta_ultimas_2": 42,
        "energy_reverse_Wh_C_delta_ultimas_2": 0,
        "direction_C": "FORWARD",
        "voltage_V_D": 132.9,
        "current_A_D": 3.22,
        "power_W_D": 401.2,
        "pf_D": 0.93,
        "freq_Hz_D": 58.84,
        "energy_Wh_D": 13152,
        "energy_reverse_Wh_D": 13766,
        "energy_Wh_D_delta_ultimas_2": 0,
        "energy_reverse_Wh_D_delta_ultimas_2": 39,
        "direction_D": "REVERSE",
        "energy_Wh_delta_total_ultimas_2": 123,
        "energy_reverse_Wh_delta_total_ultimas_2": 39,
        "consume22_23": 0.388,
        "consume1_2": 0.381,
        "consume4_5": 0.304,
        "consume6_7": 0.243,
        "consume8_9": 0.715,
        "consume10_11": 0.552,
        "consume13_14": 0.9,
        "consume14_15": 0.5,
        "consume15_16": 0.368,
        "consume17_18": 0.244,
        "consume18_19": 0.123,
        "consumo_ultimo_dia_kWh": 4.718,
        "timestamp_inicio_consumos": "2026-05-06 22:00:00",
        "timestamp_fin_consumos": "2026-05-07 18:00:00"
      }
    }
  ]
}