{
  "type": "FeatureCollection",
  "features": [
    {
      "type": "Feature",
      "geometry": {
        "type": "Point",
        "coordinates": [
          -100.292083,
          25.658877
        ]
      },
      "properties": {
        "id_punto": "25.658877_-100.292083",
        "n_registros": 322,
        "timestamp_ultimo": "2026-06-13 10:51:00",
        "timestamp_penultimo": "2026-06-13 09:05:00",
        "voltage_V_A": 122.3,
        "current_A_A": 9.758,
        "power_W_A": 1190.4,
        "pf_A": 0.99,
        "freq_Hz_A": 58.99,
        "energy_Wh_A": 668180,
        "energy_reverse_Wh_A": null,
        "energy_Wh_A_delta_ultimas_2": 1960,
        "energy_reverse_Wh_A_delta_ultimas_2": null,
        "voltage_V_B": 0,
        "current_A_B": 10.665,
        "power_W_B": 1282.9,
        "pf_B": 0.98,
        "freq_Hz_B": 58.99,
        "energy_Wh_B": 773320,
        "energy_reverse_Wh_B": null,
        "energy_Wh_B_delta_ultimas_2": 2100,
        "energy_reverse_Wh_B_delta_ultimas_2": null,
        "voltage_V_C": null,
        "current_A_C": null,
        "power_W_C": null,
        "pf_C": null,
        "freq_Hz_C": null,
        "energy_Wh_C": null,
        "energy_reverse_Wh_C": null,
        "energy_Wh_C_delta_ultimas_2": null,
        "energy_reverse_Wh_C_delta_ultimas_2": null,
        "voltage_V_D": null,
        "current_A_D": null,
        "power_W_D": null,
        "pf_D": null,
        "freq_Hz_D": null,
        "energy_Wh_D": null,
        "energy_reverse_Wh_D": null,
        "energy_Wh_D_delta_ultimas_2": null,
        "energy_reverse_Wh_D_delta_ultimas_2": null,
        "energy_Wh_delta_total_ultimas_2": 4060,
        "energy_reverse_Wh_delta_total_ultimas_2": null,
        "consume13_14_Wh": 4270.0,
        "consume15_16_Wh": 4930.0,
        "consume16_17_Wh": 3960.0,
        "consume18_19_Wh": 3630.0,
        "consume22_23_Wh": 9580.0,
        "consume2_3_Wh": 4360.0,
        "consume5_6_Wh": 2970.0,
        "consume6_7_Wh": 2290.0,
        "consume9_10_Wh": 3690.0,
        "consume10_11_Wh": 4060.0,
        "consumo_ultimo_dia_Wh": 43740.0,
        "timestamp_inicio_consumos": "2026-06-12 13:00:00",
        "timestamp_fin_consumos": "2026-06-13 10:00:00"
      }
    }
  ]
}