{
  "type": "FeatureCollection",
  "features": [
    {
      "type": "Feature",
      "geometry": {
        "type": "Point",
        "coordinates": [
          -100.293142,
          25.691261
        ]
      },
      "properties": {
        "id_punto": "25.691261_-100.293142",
        "n_registros": 178,
        "timestamp_ultimo": "2026-06-06 03:26:00",
        "timestamp_penultimo": "2026-06-06 00:43:00",
        "voltage_V_A": 0,
        "current_A_A": 15.83,
        "power_W_A": 1952.3,
        "pf_A": 0,
        "freq_Hz_A": 0,
        "energy_Wh_A": 0,
        "energy_reverse_Wh_A": null,
        "energy_Wh_A_delta_ultimas_2": 0,
        "energy_reverse_Wh_A_delta_ultimas_2": null,
        "voltage_V_B": 0,
        "current_A_B": 0.245,
        "power_W_B": 16.3,
        "pf_B": 0.51,
        "freq_Hz_B": 0,
        "energy_Wh_B": 0,
        "energy_reverse_Wh_B": null,
        "energy_Wh_B_delta_ultimas_2": 0,
        "energy_reverse_Wh_B_delta_ultimas_2": null,
        "voltage_V_C": null,
        "current_A_C": null,
        "power_W_C": null,
        "pf_C": null,
        "freq_Hz_C": null,
        "energy_Wh_C": null,
        "energy_reverse_Wh_C": null,
        "energy_Wh_C_delta_ultimas_2": null,
        "energy_reverse_Wh_C_delta_ultimas_2": null,
        "voltage_V_D": null,
        "current_A_D": null,
        "power_W_D": null,
        "pf_D": null,
        "freq_Hz_D": null,
        "energy_Wh_D": null,
        "energy_reverse_Wh_D": null,
        "energy_Wh_D_delta_ultimas_2": null,
        "energy_reverse_Wh_D_delta_ultimas_2": null,
        "energy_Wh_delta_total_ultimas_2": 0,
        "energy_reverse_Wh_delta_total_ultimas_2": null,
        "consume8_9_Wh": 0.0,
        "consume10_11_Wh": 0.0,
        "consume12_13_Wh": 0.0,
        "consume14_15_Wh": 0.0,
        "consume16_17_Wh": 0.0,
        "consume17_18_Wh": 0.0,
        "consume21_22_Wh": 0.0,
        "consume0_1_Wh": 0.0,
        "consume3_4_Wh": 0.0,
        "consumo_ultimo_dia_Wh": 0.0,
        "timestamp_inicio_consumos": "2026-06-05 08:00:00",
        "timestamp_fin_consumos": "2026-06-06 03:00:00"
      }
    }
  ]
}