{
  "type": "FeatureCollection",
  "features": [
    {
      "type": "Feature",
      "geometry": {
        "type": "Point",
        "coordinates": [
          -100.278294,
          25.650309
        ]
      },
      "properties": {
        "id_punto": "25.650309_-100.278294",
        "n_registros": 426,
        "timestamp_ultimo": "2026-06-25 13:28:00",
        "timestamp_penultimo": "2026-06-25 11:26:00",
        "voltage_V_A": 121.9,
        "current_A_A": 4.861,
        "power_W_A": 481.5,
        "pf_A": 0.81,
        "freq_Hz_A": 58.82,
        "energy_Wh_A": 395620,
        "energy_reverse_Wh_A": null,
        "energy_Wh_A_delta_ultimas_2": 550,
        "energy_reverse_Wh_A_delta_ultimas_2": null,
        "voltage_V_B": 0,
        "current_A_B": 4.86,
        "power_W_B": 483.2,
        "pf_B": 0.81,
        "freq_Hz_B": 58.82,
        "energy_Wh_B": 396860,
        "energy_reverse_Wh_B": null,
        "energy_Wh_B_delta_ultimas_2": 550,
        "energy_reverse_Wh_B_delta_ultimas_2": null,
        "voltage_V_C": 0,
        "current_A_C": 0.042,
        "power_W_C": 2.7,
        "pf_C": 0,
        "freq_Hz_C": 0,
        "energy_Wh_C": 0,
        "energy_reverse_Wh_C": null,
        "energy_Wh_C_delta_ultimas_2": 0,
        "energy_reverse_Wh_C_delta_ultimas_2": null,
        "voltage_V_D": 0,
        "current_A_D": 0.035,
        "power_W_D": 2.2,
        "pf_D": 1.0,
        "freq_Hz_D": 0,
        "energy_Wh_D": 0,
        "energy_reverse_Wh_D": null,
        "energy_Wh_D_delta_ultimas_2": 0,
        "energy_reverse_Wh_D_delta_ultimas_2": null,
        "energy_Wh_delta_total_ultimas_2": 1100,
        "energy_reverse_Wh_delta_total_ultimas_2": null,
        "consume15_16_Wh": 860.0,
        "consume17_18_Wh": 690.0,
        "consume19_20_Wh": 2230.0,
        "consume23_0_Wh": 4440.0,
        "consume3_4_Wh": 2400.0,
        "consume6_7_Wh": 930.0,
        "consume9_10_Wh": 1310.0,
        "consume11_12_Wh": 840.0,
        "consume13_14_Wh": 1100.0,
        "consumo_ultimo_dia_Wh": 14800.0,
        "timestamp_inicio_consumos": "2026-06-24 15:00:00",
        "timestamp_fin_consumos": "2026-06-25 13:00:00"
      }
    }
  ]
}