{
  "type": "FeatureCollection",
  "features": [
    {
      "type": "Feature",
      "geometry": {
        "type": "Point",
        "coordinates": [
          -100.29505,
          25.618982
        ]
      },
      "properties": {
        "id_punto": "25.618982_-100.29505",
        "n_registros": 542,
        "timestamp_ultimo": "2026-06-26 16:48:00",
        "timestamp_penultimo": "2026-06-26 15:23:00",
        "voltage_V_A": 132.4,
        "current_A_A": 4.435,
        "power_W_A": 479.2,
        "pf_A": 0.81,
        "freq_Hz_A": 58.85,
        "energy_Wh_A": 65674,
        "energy_reverse_Wh_A": 31506.0,
        "energy_Wh_A_delta_ultimas_2": 0,
        "energy_reverse_Wh_A_delta_ultimas_2": 96.0,
        "direction_A": "REVERSE",
        "voltage_V_B": 132.4,
        "current_A_B": 5.027,
        "power_W_B": 534.4,
        "pf_B": 0.8,
        "freq_Hz_B": 58.85,
        "energy_Wh_B": 36598,
        "energy_reverse_Wh_B": 52296.0,
        "energy_Wh_B_delta_ultimas_2": 107,
        "energy_reverse_Wh_B_delta_ultimas_2": 0.0,
        "direction_B": "FORWARD",
        "voltage_V_C": null,
        "current_A_C": null,
        "power_W_C": null,
        "pf_C": null,
        "freq_Hz_C": null,
        "energy_Wh_C": null,
        "energy_reverse_Wh_C": null,
        "energy_Wh_C_delta_ultimas_2": null,
        "energy_reverse_Wh_C_delta_ultimas_2": null,
        "direction_C": null,
        "voltage_V_D": null,
        "current_A_D": null,
        "power_W_D": null,
        "pf_D": null,
        "freq_Hz_D": null,
        "energy_Wh_D": null,
        "energy_reverse_Wh_D": null,
        "energy_Wh_D_delta_ultimas_2": null,
        "energy_reverse_Wh_D_delta_ultimas_2": null,
        "direction_D": null,
        "energy_Wh_delta_total_ultimas_2": 107,
        "energy_reverse_Wh_delta_total_ultimas_2": 96.0,
        "consume18_19_Wh": 45.0,
        "consume22_23_Wh": 102.0,
        "consume2_3_Wh": 314.0,
        "consume5_6_Wh": 200.0,
        "consume7_8_Wh": 144.0,
        "consume9_10_Wh": 183.0,
        "consume11_12_Wh": 203.0,
        "consume13_14_Wh": 241.0,
        "consume15_16_Wh": 152.0,
        "consume16_17_Wh": 107.0,
        "consumo_ultimo_dia_Wh": 1691.0,
        "timestamp_inicio_consumos": "2026-06-25 18:00:00",
        "timestamp_fin_consumos": "2026-06-26 16:00:00",
        "vivienda": "Vivienda1 - Doctor",
        "archivo_origen": "Medidor1.csv"
      }
    },
    {
      "type": "Feature",
      "geometry": {
        "type": "Point",
        "coordinates": [
          -100.286587,
          25.645697
        ]
      },
      "properties": {
        "id_punto": "25.645697_-100.286587",
        "n_registros": 438,
        "timestamp_ultimo": "2026-06-26 16:48:00",
        "timestamp_penultimo": "2026-06-26 15:23:00",
        "voltage_V_A": 118.4,
        "current_A_A": 1.185,
        "power_W_A": 90.9,
        "pf_A": 0.64,
        "freq_Hz_A": 59.02,
        "energy_Wh_A": 271980,
        "energy_reverse_Wh_A": null,
        "energy_Wh_A_delta_ultimas_2": 140,
        "energy_reverse_Wh_A_delta_ultimas_2": null,
        "direction_A": null,
        "voltage_V_B": 0.0,
        "current_A_B": 1.19,
        "power_W_B": 91.3,
        "pf_B": 0.64,
        "freq_Hz_B": 59.02,
        "energy_Wh_B": 270230,
        "energy_reverse_Wh_B": null,
        "energy_Wh_B_delta_ultimas_2": 150,
        "energy_reverse_Wh_B_delta_ultimas_2": null,
        "direction_B": null,
        "voltage_V_C": 121.6,
        "current_A_C": 0.045,
        "power_W_C": 4.3,
        "pf_C": 0.78,
        "freq_Hz_C": 58.93,
        "energy_Wh_C": 107510.0,
        "energy_reverse_Wh_C": null,
        "energy_Wh_C_delta_ultimas_2": 0.0,
        "energy_reverse_Wh_C_delta_ultimas_2": null,
        "direction_C": null,
        "voltage_V_D": 0.0,
        "current_A_D": 0.049,
        "power_W_D": 4.6,
        "pf_D": 0.76,
        "freq_Hz_D": 58.93,
        "energy_Wh_D": 111800.0,
        "energy_reverse_Wh_D": null,
        "energy_Wh_D_delta_ultimas_2": 0.0,
        "energy_reverse_Wh_D_delta_ultimas_2": null,
        "direction_D": null,
        "energy_Wh_delta_total_ultimas_2": 290.0,
        "energy_reverse_Wh_delta_total_ultimas_2": null,
        "consume18_19_Wh": 520.0,
        "consume22_23_Wh": 1490.0,
        "consume2_3_Wh": 1220.0,
        "consume5_6_Wh": 960.0,
        "consume7_8_Wh": 570.0,
        "consume9_10_Wh": 500.0,
        "consume11_12_Wh": 390.0,
        "consume13_14_Wh": 400.0,
        "consume15_16_Wh": 280.0,
        "consume16_17_Wh": 290.0,
        "consumo_ultimo_dia_Wh": 6620.0,
        "timestamp_inicio_consumos": "2026-06-25 18:00:00",
        "timestamp_fin_consumos": "2026-06-26 16:00:00",
        "vivienda": "JIH-V8V9",
        "archivo_origen": "JIH-V8V9.csv"
      }
    },
    {
      "type": "Feature",
      "geometry": {
        "type": "Point",
        "coordinates": [
          -100.288357,
          25.646641
        ]
      },
      "properties": {
        "id_punto": "25.646641_-100.288357",
        "n_registros": 542,
        "timestamp_ultimo": "2026-06-26 16:48:00",
        "timestamp_penultimo": "2026-06-26 15:23:00",
        "voltage_V_A": 127.3,
        "current_A_A": 1.599,
        "power_W_A": 145.4,
        "pf_A": 0.7,
        "freq_Hz_A": 59.18,
        "energy_Wh_A": 241865,
        "energy_reverse_Wh_A": null,
        "energy_Wh_A_delta_ultimas_2": 18,
        "energy_reverse_Wh_A_delta_ultimas_2": null,
        "direction_A": null,
        "voltage_V_B": 125.8,
        "current_A_B": 0.044,
        "power_W_B": 4.1,
        "pf_B": 0.75,
        "freq_Hz_B": 59.16,
        "energy_Wh_B": 50402,
        "energy_reverse_Wh_B": null,
        "energy_Wh_B_delta_ultimas_2": 0,
        "energy_reverse_Wh_B_delta_ultimas_2": null,
        "direction_B": null,
        "voltage_V_C": null,
        "current_A_C": null,
        "power_W_C": null,
        "pf_C": null,
        "freq_Hz_C": null,
        "energy_Wh_C": null,
        "energy_reverse_Wh_C": null,
        "energy_Wh_C_delta_ultimas_2": null,
        "energy_reverse_Wh_C_delta_ultimas_2": null,
        "direction_C": null,
        "voltage_V_D": null,
        "current_A_D": null,
        "power_W_D": null,
        "pf_D": null,
        "freq_Hz_D": null,
        "energy_Wh_D": null,
        "energy_reverse_Wh_D": null,
        "energy_Wh_D_delta_ultimas_2": null,
        "energy_reverse_Wh_D_delta_ultimas_2": null,
        "direction_D": null,
        "energy_Wh_delta_total_ultimas_2": 18,
        "energy_reverse_Wh_delta_total_ultimas_2": null,
        "consume18_19_Wh": 323.0,
        "consume22_23_Wh": 549.0,
        "consume2_3_Wh": 518.0,
        "consume5_6_Wh": 410.0,
        "consume7_8_Wh": 316.0,
        "consume9_10_Wh": 64.0,
        "consume11_12_Wh": 35.0,
        "consume13_14_Wh": 29.0,
        "consume15_16_Wh": 21.0,
        "consume16_17_Wh": 18.0,
        "consumo_ultimo_dia_Wh": 2283.0,
        "timestamp_inicio_consumos": "2026-06-25 18:00:00",
        "timestamp_fin_consumos": "2026-06-26 16:00:00",
        "vivienda": "Vivienda2 - Ángel",
        "archivo_origen": "Medidor2.csv"
      }
    },
    {
      "type": "Feature",
      "geometry": {
        "type": "Point",
        "coordinates": [
          -100.279387,
          25.648629
        ]
      },
      "properties": {
        "id_punto": "25.648629_-100.279387",
        "n_registros": 542,
        "timestamp_ultimo": "2026-06-26 16:48:00",
        "timestamp_penultimo": "2026-06-26 15:23:00",
        "voltage_V_A": 119.4,
        "current_A_A": 4.92,
        "power_W_A": 580.7,
        "pf_A": 0.98,
        "freq_Hz_A": 59.18,
        "energy_Wh_A": 801620,
        "energy_reverse_Wh_A": null,
        "energy_Wh_A_delta_ultimas_2": 670,
        "energy_reverse_Wh_A_delta_ultimas_2": null,
        "direction_A": null,
        "voltage_V_B": 117.7,
        "current_A_B": 5.913,
        "power_W_B": 685.1,
        "pf_B": 0.98,
        "freq_Hz_B": 58.95,
        "energy_Wh_B": 1048400,
        "energy_reverse_Wh_B": null,
        "energy_Wh_B_delta_ultimas_2": 780,
        "energy_reverse_Wh_B_delta_ultimas_2": null,
        "direction_B": null,
        "voltage_V_C": null,
        "current_A_C": null,
        "power_W_C": null,
        "pf_C": null,
        "freq_Hz_C": null,
        "energy_Wh_C": null,
        "energy_reverse_Wh_C": null,
        "energy_Wh_C_delta_ultimas_2": null,
        "energy_reverse_Wh_C_delta_ultimas_2": null,
        "direction_C": null,
        "voltage_V_D": null,
        "current_A_D": null,
        "power_W_D": null,
        "pf_D": null,
        "freq_Hz_D": null,
        "energy_Wh_D": null,
        "energy_reverse_Wh_D": null,
        "energy_Wh_D_delta_ultimas_2": null,
        "energy_reverse_Wh_D_delta_ultimas_2": null,
        "direction_D": null,
        "energy_Wh_delta_total_ultimas_2": 1450,
        "energy_reverse_Wh_delta_total_ultimas_2": null,
        "consume18_19_Wh": 720.0,
        "consume22_23_Wh": 5090.0,
        "consume2_3_Wh": 1740.0,
        "consume5_6_Wh": 5230.0,
        "consume7_8_Wh": 2910.0,
        "consume9_10_Wh": 1290.0,
        "consume11_12_Wh": 210.0,
        "consume13_14_Wh": 220.0,
        "consume15_16_Wh": 160.0,
        "consume16_17_Wh": 1450.0,
        "consumo_ultimo_dia_Wh": 19020.0,
        "timestamp_inicio_consumos": "2026-06-25 18:00:00",
        "timestamp_fin_consumos": "2026-06-26 16:00:00",
        "vivienda": "Vivienda3 - María",
        "archivo_origen": "Medidor3.csv"
      }
    },
    {
      "type": "Feature",
      "geometry": {
        "type": "Point",
        "coordinates": [
          -100.294446,
          25.649652
        ]
      },
      "properties": {
        "id_punto": "25.649652_-100.294446",
        "n_registros": 438,
        "timestamp_ultimo": "2026-06-26 16:48:00",
        "timestamp_penultimo": "2026-06-26 15:23:00",
        "voltage_V_A": 115.9,
        "current_A_A": 4.819,
        "power_W_A": 552.6,
        "pf_A": 0.98,
        "freq_Hz_A": 58.92,
        "energy_Wh_A": 428960,
        "energy_reverse_Wh_A": null,
        "energy_Wh_A_delta_ultimas_2": 350,
        "energy_reverse_Wh_A_delta_ultimas_2": null,
        "direction_A": null,
        "voltage_V_B": 0.0,
        "current_A_B": 4.872,
        "power_W_B": 557.4,
        "pf_B": 0.98,
        "freq_Hz_B": 58.92,
        "energy_Wh_B": 443130,
        "energy_reverse_Wh_B": null,
        "energy_Wh_B_delta_ultimas_2": 360,
        "energy_reverse_Wh_B_delta_ultimas_2": null,
        "direction_B": null,
        "voltage_V_C": null,
        "current_A_C": null,
        "power_W_C": null,
        "pf_C": null,
        "freq_Hz_C": null,
        "energy_Wh_C": null,
        "energy_reverse_Wh_C": null,
        "energy_Wh_C_delta_ultimas_2": null,
        "energy_reverse_Wh_C_delta_ultimas_2": null,
        "direction_C": null,
        "voltage_V_D": null,
        "current_A_D": null,
        "power_W_D": null,
        "pf_D": null,
        "freq_Hz_D": null,
        "energy_Wh_D": null,
        "energy_reverse_Wh_D": null,
        "energy_Wh_D_delta_ultimas_2": null,
        "energy_reverse_Wh_D_delta_ultimas_2": null,
        "direction_D": null,
        "energy_Wh_delta_total_ultimas_2": 710,
        "energy_reverse_Wh_delta_total_ultimas_2": null,
        "consume18_19_Wh": 3240.0,
        "consume22_23_Wh": 9120.0,
        "consume2_3_Wh": 2510.0,
        "consume5_6_Wh": 1650.0,
        "consume7_8_Wh": 600.0,
        "consume9_10_Wh": 30.0,
        "consume11_12_Wh": 0.0,
        "consume13_14_Wh": 2550.0,
        "consume15_16_Wh": 10.0,
        "consume16_17_Wh": 710.0,
        "consumo_ultimo_dia_Wh": 20420.0,
        "timestamp_inicio_consumos": "2026-06-25 18:00:00",
        "timestamp_fin_consumos": "2026-06-26 16:00:00",
        "vivienda": "JIH-V19",
        "archivo_origen": "JIH-V19.csv"
      }
    },
    {
      "type": "Feature",
      "geometry": {
        "type": "Point",
        "coordinates": [
          -100.278294,
          25.650309
        ]
      },
      "properties": {
        "id_punto": "25.650309_-100.278294",
        "n_registros": 438,
        "timestamp_ultimo": "2026-06-26 16:48:00",
        "timestamp_penultimo": "2026-06-26 15:23:00",
        "voltage_V_A": 120.5,
        "current_A_A": 3.251,
        "power_W_A": 300.5,
        "pf_A": 0.76,
        "freq_Hz_A": 58.85,
        "energy_Wh_A": 405580,
        "energy_reverse_Wh_A": null,
        "energy_Wh_A_delta_ultimas_2": 480,
        "energy_reverse_Wh_A_delta_ultimas_2": null,
        "direction_A": null,
        "voltage_V_B": 0.0,
        "current_A_B": 3.249,
        "power_W_B": 301.3,
        "pf_B": 0.76,
        "freq_Hz_B": 58.85,
        "energy_Wh_B": 406860,
        "energy_reverse_Wh_B": null,
        "energy_Wh_B_delta_ultimas_2": 470,
        "energy_reverse_Wh_B_delta_ultimas_2": null,
        "direction_B": null,
        "voltage_V_C": 0.0,
        "current_A_C": 0.041,
        "power_W_C": 2.7,
        "pf_C": 0.0,
        "freq_Hz_C": 0.0,
        "energy_Wh_C": 0.0,
        "energy_reverse_Wh_C": null,
        "energy_Wh_C_delta_ultimas_2": 0.0,
        "energy_reverse_Wh_C_delta_ultimas_2": null,
        "direction_C": null,
        "voltage_V_D": 0.0,
        "current_A_D": 0.058,
        "power_W_D": -4.8,
        "pf_D": 0.67,
        "freq_Hz_D": 0.0,
        "energy_Wh_D": 0.0,
        "energy_reverse_Wh_D": null,
        "energy_Wh_D_delta_ultimas_2": 0.0,
        "energy_reverse_Wh_D_delta_ultimas_2": null,
        "direction_D": null,
        "energy_Wh_delta_total_ultimas_2": 950.0,
        "energy_reverse_Wh_delta_total_ultimas_2": null,
        "consume18_19_Wh": 1540.0,
        "consume22_23_Wh": 5350.0,
        "consume2_3_Wh": 2550.0,
        "consume5_6_Wh": 1270.0,
        "consume7_8_Wh": 800.0,
        "consume9_10_Wh": 1030.0,
        "consume11_12_Wh": 1130.0,
        "consume13_14_Wh": 1150.0,
        "consume15_16_Wh": 870.0,
        "consume16_17_Wh": 950.0,
        "consumo_ultimo_dia_Wh": 16640.0,
        "timestamp_inicio_consumos": "2026-06-25 18:00:00",
        "timestamp_fin_consumos": "2026-06-26 16:00:00",
        "vivienda": "JIH-V7",
        "archivo_origen": "JIH-V7.csv"
      }
    },
    {
      "type": "Feature",
      "geometry": {
        "type": "Point",
        "coordinates": [
          -100.278048,
          25.650767
        ]
      },
      "properties": {
        "id_punto": "25.650767_-100.278048",
        "n_registros": 352,
        "timestamp_ultimo": "2026-06-26 16:48:00",
        "timestamp_penultimo": "2026-06-26 15:23:00",
        "voltage_V_A": 122.7,
        "current_A_A": 13.003,
        "power_W_A": 1577.2,
        "pf_A": 0.98,
        "freq_Hz_A": 59.1,
        "energy_Wh_A": 592950,
        "energy_reverse_Wh_A": null,
        "energy_Wh_A_delta_ultimas_2": 2180,
        "energy_reverse_Wh_A_delta_ultimas_2": null,
        "direction_A": null,
        "voltage_V_B": 0.0,
        "current_A_B": 11.871,
        "power_W_B": 1440.3,
        "pf_B": 0.98,
        "freq_Hz_B": 59.1,
        "energy_Wh_B": 574620,
        "energy_reverse_Wh_B": null,
        "energy_Wh_B_delta_ultimas_2": 1850,
        "energy_reverse_Wh_B_delta_ultimas_2": null,
        "direction_B": null,
        "voltage_V_C": null,
        "current_A_C": null,
        "power_W_C": null,
        "pf_C": null,
        "freq_Hz_C": null,
        "energy_Wh_C": null,
        "energy_reverse_Wh_C": null,
        "energy_Wh_C_delta_ultimas_2": null,
        "energy_reverse_Wh_C_delta_ultimas_2": null,
        "direction_C": null,
        "voltage_V_D": null,
        "current_A_D": null,
        "power_W_D": null,
        "pf_D": null,
        "freq_Hz_D": null,
        "energy_Wh_D": null,
        "energy_reverse_Wh_D": null,
        "energy_Wh_D_delta_ultimas_2": null,
        "energy_reverse_Wh_D_delta_ultimas_2": null,
        "direction_D": null,
        "energy_Wh_delta_total_ultimas_2": 4030,
        "energy_reverse_Wh_delta_total_ultimas_2": null,
        "consume18_19_Wh": 750.0,
        "consume22_23_Wh": 8120.0,
        "consume2_3_Wh": 3730.0,
        "consume5_6_Wh": 2960.0,
        "consume7_8_Wh": 1720.0,
        "consume9_10_Wh": 2020.0,
        "consume11_12_Wh": 3400.0,
        "consume13_14_Wh": 3090.0,
        "consume15_16_Wh": 1080.0,
        "consume16_17_Wh": 4030.0,
        "consumo_ultimo_dia_Wh": 30900.0,
        "timestamp_inicio_consumos": "2026-06-25 18:00:00",
        "timestamp_fin_consumos": "2026-06-26 16:00:00",
        "vivienda": "JIH-V15",
        "archivo_origen": "JIH-V15.csv"
      }
    },
    {
      "type": "Feature",
      "geometry": {
        "type": "Point",
        "coordinates": [
          -100.293008,
          25.651085
        ]
      },
      "properties": {
        "id_punto": "25.651085_-100.293008",
        "n_registros": 438,
        "timestamp_ultimo": "2026-06-26 16:48:00",
        "timestamp_penultimo": "2026-06-26 15:23:00",
        "voltage_V_A": 127.6,
        "current_A_A": 7.04,
        "power_W_A": 519.9,
        "pf_A": 0.57,
        "freq_Hz_A": 58.84,
        "energy_Wh_A": 651770,
        "energy_reverse_Wh_A": null,
        "energy_Wh_A_delta_ultimas_2": 740,
        "energy_reverse_Wh_A_delta_ultimas_2": null,
        "direction_A": null,
        "voltage_V_B": 0.0,
        "current_A_B": 0.655,
        "power_W_B": 60.6,
        "pf_B": 0.72,
        "freq_Hz_B": 58.84,
        "energy_Wh_B": 442790,
        "energy_reverse_Wh_B": null,
        "energy_Wh_B_delta_ultimas_2": 140,
        "energy_reverse_Wh_B_delta_ultimas_2": null,
        "direction_B": null,
        "voltage_V_C": 132.4,
        "current_A_C": 4.435,
        "power_W_C": 479.2,
        "pf_C": 0.81,
        "freq_Hz_C": 58.85,
        "energy_Wh_C": 65674.0,
        "energy_reverse_Wh_C": 31506.0,
        "energy_Wh_C_delta_ultimas_2": 0.0,
        "energy_reverse_Wh_C_delta_ultimas_2": 96.0,
        "direction_C": "REVERSE",
        "voltage_V_D": 132.4,
        "current_A_D": 5.027,
        "power_W_D": 534.4,
        "pf_D": 0.8,
        "freq_Hz_D": 58.85,
        "energy_Wh_D": 36598.0,
        "energy_reverse_Wh_D": 52296.0,
        "energy_Wh_D_delta_ultimas_2": 107.0,
        "energy_reverse_Wh_D_delta_ultimas_2": 0.0,
        "direction_D": "FORWARD",
        "energy_Wh_delta_total_ultimas_2": 987.0,
        "energy_reverse_Wh_delta_total_ultimas_2": 96.0,
        "consume18_19_Wh": 4215.0,
        "consume22_23_Wh": 8672.0,
        "consume2_3_Wh": 5144.0,
        "consume5_6_Wh": 3840.0,
        "consume7_8_Wh": 2434.0,
        "consume9_10_Wh": 2273.0,
        "consume11_12_Wh": 3683.0,
        "consume13_14_Wh": 1831.0,
        "consume15_16_Wh": 1152.0,
        "consume16_17_Wh": 987.0,
        "consumo_ultimo_dia_Wh": 34231.0,
        "timestamp_inicio_consumos": "2026-06-25 18:00:00",
        "timestamp_fin_consumos": "2026-06-26 16:00:00",
        "vivienda": "DistritoTec",
        "archivo_origen": "DistritoTec.csv"
      }
    },
    {
      "type": "Feature",
      "geometry": {
        "type": "Point",
        "coordinates": [
          -100.280182,
          25.651742
        ]
      },
      "properties": {
        "id_punto": "25.651742_-100.280182",
        "n_registros": 438,
        "timestamp_ultimo": "2026-06-26 16:48:00",
        "timestamp_penultimo": "2026-06-26 15:23:00",
        "voltage_V_A": 126.7,
        "current_A_A": 1.831,
        "power_W_A": 51.5,
        "pf_A": 0.22,
        "freq_Hz_A": 59.13,
        "energy_Wh_A": 250870,
        "energy_reverse_Wh_A": null,
        "energy_Wh_A_delta_ultimas_2": 220,
        "energy_reverse_Wh_A_delta_ultimas_2": null,
        "direction_A": null,
        "voltage_V_B": 0.0,
        "current_A_B": 0.06,
        "power_W_B": 4.4,
        "pf_B": 0.57,
        "freq_Hz_B": 59.13,
        "energy_Wh_B": 27770,
        "energy_reverse_Wh_B": null,
        "energy_Wh_B_delta_ultimas_2": 10,
        "energy_reverse_Wh_B_delta_ultimas_2": null,
        "direction_B": null,
        "voltage_V_C": null,
        "current_A_C": null,
        "power_W_C": null,
        "pf_C": null,
        "freq_Hz_C": null,
        "energy_Wh_C": null,
        "energy_reverse_Wh_C": null,
        "energy_Wh_C_delta_ultimas_2": null,
        "energy_reverse_Wh_C_delta_ultimas_2": null,
        "direction_C": null,
        "voltage_V_D": null,
        "current_A_D": null,
        "power_W_D": null,
        "pf_D": null,
        "freq_Hz_D": null,
        "energy_Wh_D": null,
        "energy_reverse_Wh_D": null,
        "energy_Wh_D_delta_ultimas_2": null,
        "energy_reverse_Wh_D_delta_ultimas_2": null,
        "direction_D": null,
        "energy_Wh_delta_total_ultimas_2": 230,
        "energy_reverse_Wh_delta_total_ultimas_2": null,
        "consume18_19_Wh": 140.0,
        "consume22_23_Wh": 670.0,
        "consume2_3_Wh": 860.0,
        "consume5_6_Wh": 640.0,
        "consume7_8_Wh": 590.0,
        "consume9_10_Wh": 480.0,
        "consume11_12_Wh": 230.0,
        "consume13_14_Wh": 190.0,
        "consume15_16_Wh": 270.0,
        "consume16_17_Wh": 230.0,
        "consumo_ultimo_dia_Wh": 4300.0,
        "timestamp_inicio_consumos": "2026-06-25 18:00:00",
        "timestamp_fin_consumos": "2026-06-26 16:00:00",
        "vivienda": "JIH-V",
        "archivo_origen": "JIH-V.csv"
      }
    },
    {
      "type": "Feature",
      "geometry": {
        "type": "Point",
        "coordinates": [
          -100.291879,
          25.657228
        ]
      },
      "properties": {
        "id_punto": "25.657228_-100.291879",
        "n_registros": 438,
        "timestamp_ultimo": "2026-06-26 16:48:00",
        "timestamp_penultimo": "2026-06-26 15:23:00",
        "voltage_V_A": 117.8,
        "current_A_A": 2.471,
        "power_W_A": 288.2,
        "pf_A": 0.98,
        "freq_Hz_A": 59.1,
        "energy_Wh_A": 512950,
        "energy_reverse_Wh_A": null,
        "energy_Wh_A_delta_ultimas_2": 380,
        "energy_reverse_Wh_A_delta_ultimas_2": null,
        "direction_A": null,
        "voltage_V_B": 0.0,
        "current_A_B": 0.855,
        "power_W_B": 35.9,
        "pf_B": 0.35,
        "freq_Hz_B": 59.1,
        "energy_Wh_B": 344730,
        "energy_reverse_Wh_B": null,
        "energy_Wh_B_delta_ultimas_2": 80,
        "energy_reverse_Wh_B_delta_ultimas_2": null,
        "direction_B": null,
        "voltage_V_C": 117.3,
        "current_A_C": 3.424,
        "power_W_C": 325.9,
        "pf_C": 0.8,
        "freq_Hz_C": 59.23,
        "energy_Wh_C": 458090.0,
        "energy_reverse_Wh_C": null,
        "energy_Wh_C_delta_ultimas_2": 710.0,
        "energy_reverse_Wh_C_delta_ultimas_2": null,
        "direction_C": null,
        "voltage_V_D": 0.0,
        "current_A_D": 0.0,
        "power_W_D": 0.0,
        "pf_D": 1.0,
        "freq_Hz_D": 59.23,
        "energy_Wh_D": 0.0,
        "energy_reverse_Wh_D": null,
        "energy_Wh_D_delta_ultimas_2": 0.0,
        "energy_reverse_Wh_D_delta_ultimas_2": null,
        "direction_D": null,
        "energy_Wh_delta_total_ultimas_2": 1170.0,
        "energy_reverse_Wh_delta_total_ultimas_2": null,
        "consume18_19_Wh": 730.0,
        "consume22_23_Wh": 2330.0,
        "consume2_3_Wh": 4900.0,
        "consume5_6_Wh": 2500.0,
        "consume7_8_Wh": 1530.0,
        "consume9_10_Wh": 1070.0,
        "consume11_12_Wh": 1120.0,
        "consume13_14_Wh": 1240.0,
        "consume15_16_Wh": 1100.0,
        "consume16_17_Wh": 1170.0,
        "consumo_ultimo_dia_Wh": 17690.0,
        "timestamp_inicio_consumos": "2026-06-25 18:00:00",
        "timestamp_fin_consumos": "2026-06-26 16:00:00",
        "vivienda": "JIH-V1V2",
        "archivo_origen": "JIH-V1V2.csv"
      }
    },
    {
      "type": "Feature",
      "geometry": {
        "type": "Point",
        "coordinates": [
          -100.293267,
          25.657299
        ]
      },
      "properties": {
        "id_punto": "25.657299_-100.293267",
        "n_registros": 438,
        "timestamp_ultimo": "2026-06-26 16:48:00",
        "timestamp_penultimo": "2026-06-26 15:23:00",
        "voltage_V_A": 118.3,
        "current_A_A": 1.635,
        "power_W_A": 127.5,
        "pf_A": 0.65,
        "freq_Hz_A": 59.01,
        "energy_Wh_A": 277280,
        "energy_reverse_Wh_A": null,
        "energy_Wh_A_delta_ultimas_2": 180,
        "energy_reverse_Wh_A_delta_ultimas_2": null,
        "direction_A": null,
        "voltage_V_B": 0.0,
        "current_A_B": 1.168,
        "power_W_B": 31.2,
        "pf_B": 0.22,
        "freq_Hz_B": 59.01,
        "energy_Wh_B": 165360,
        "energy_reverse_Wh_B": null,
        "energy_Wh_B_delta_ultimas_2": 40,
        "energy_reverse_Wh_B_delta_ultimas_2": null,
        "direction_B": null,
        "voltage_V_C": null,
        "current_A_C": null,
        "power_W_C": null,
        "pf_C": null,
        "freq_Hz_C": null,
        "energy_Wh_C": null,
        "energy_reverse_Wh_C": null,
        "energy_Wh_C_delta_ultimas_2": null,
        "energy_reverse_Wh_C_delta_ultimas_2": null,
        "direction_C": null,
        "voltage_V_D": null,
        "current_A_D": null,
        "power_W_D": null,
        "pf_D": null,
        "freq_Hz_D": null,
        "energy_Wh_D": null,
        "energy_reverse_Wh_D": null,
        "energy_Wh_D_delta_ultimas_2": null,
        "energy_reverse_Wh_D_delta_ultimas_2": null,
        "direction_D": null,
        "energy_Wh_delta_total_ultimas_2": 220,
        "energy_reverse_Wh_delta_total_ultimas_2": null,
        "consume18_19_Wh": 170.0,
        "consume22_23_Wh": 4670.0,
        "consume2_3_Wh": 650.0,
        "consume5_6_Wh": 510.0,
        "consume7_8_Wh": 330.0,
        "consume9_10_Wh": 550.0,
        "consume11_12_Wh": 600.0,
        "consume13_14_Wh": 960.0,
        "consume15_16_Wh": 1730.0,
        "consume16_17_Wh": 220.0,
        "consumo_ultimo_dia_Wh": 10390.0,
        "timestamp_inicio_consumos": "2026-06-25 18:00:00",
        "timestamp_fin_consumos": "2026-06-26 16:00:00",
        "vivienda": "JIH-V5",
        "archivo_origen": "JIH-V5.csv"
      }
    },
    {
      "type": "Feature",
      "geometry": {
        "type": "Point",
        "coordinates": [
          -100.291636,
          25.658491
        ]
      },
      "properties": {
        "id_punto": "25.658491_-100.291636",
        "n_registros": 438,
        "timestamp_ultimo": "2026-06-26 16:48:00",
        "timestamp_penultimo": "2026-06-26 15:23:00",
        "voltage_V_A": 0.0,
        "current_A_A": 0.0,
        "power_W_A": 1.9,
        "pf_A": 0.0,
        "freq_Hz_A": 0.0,
        "energy_Wh_A": 0,
        "energy_reverse_Wh_A": null,
        "energy_Wh_A_delta_ultimas_2": 0,
        "energy_reverse_Wh_A_delta_ultimas_2": null,
        "direction_A": null,
        "voltage_V_B": 0.0,
        "current_A_B": 1.885,
        "power_W_B": 192.7,
        "pf_B": 0.7,
        "freq_Hz_B": 0.0,
        "energy_Wh_B": 0,
        "energy_reverse_Wh_B": null,
        "energy_Wh_B_delta_ultimas_2": 0,
        "energy_reverse_Wh_B_delta_ultimas_2": null,
        "direction_B": null,
        "voltage_V_C": null,
        "current_A_C": null,
        "power_W_C": null,
        "pf_C": null,
        "freq_Hz_C": null,
        "energy_Wh_C": null,
        "energy_reverse_Wh_C": null,
        "energy_Wh_C_delta_ultimas_2": null,
        "energy_reverse_Wh_C_delta_ultimas_2": null,
        "direction_C": null,
        "voltage_V_D": null,
        "current_A_D": null,
        "power_W_D": null,
        "pf_D": null,
        "freq_Hz_D": null,
        "energy_Wh_D": null,
        "energy_reverse_Wh_D": null,
        "energy_Wh_D_delta_ultimas_2": null,
        "energy_reverse_Wh_D_delta_ultimas_2": null,
        "direction_D": null,
        "energy_Wh_delta_total_ultimas_2": 0,
        "energy_reverse_Wh_delta_total_ultimas_2": null,
        "consume18_19_Wh": 0.0,
        "consume22_23_Wh": 0.0,
        "consume2_3_Wh": 0.0,
        "consume5_6_Wh": 0.0,
        "consume7_8_Wh": 0.0,
        "consume9_10_Wh": 0.0,
        "consume11_12_Wh": 0.0,
        "consume13_14_Wh": 0.0,
        "consume15_16_Wh": 0.0,
        "consume16_17_Wh": 0.0,
        "consumo_ultimo_dia_Wh": 0.0,
        "timestamp_inicio_consumos": "2026-06-25 18:00:00",
        "timestamp_fin_consumos": "2026-06-26 16:00:00",
        "vivienda": "JIH-V13",
        "archivo_origen": "JIH-V13.csv"
      }
    },
    {
      "type": "Feature",
      "geometry": {
        "type": "Point",
        "coordinates": [
          -100.292083,
          25.658877
        ]
      },
      "properties": {
        "id_punto": "25.658877_-100.292083",
        "n_registros": 438,
        "timestamp_ultimo": "2026-06-26 16:48:00",
        "timestamp_penultimo": "2026-06-26 15:23:00",
        "voltage_V_A": 117.1,
        "current_A_A": 9.902,
        "power_W_A": 1152.1,
        "pf_A": 0.99,
        "freq_Hz_A": 58.99,
        "energy_Wh_A": 898310,
        "energy_reverse_Wh_A": null,
        "energy_Wh_A_delta_ultimas_2": 1780,
        "energy_reverse_Wh_A_delta_ultimas_2": null,
        "direction_A": null,
        "voltage_V_B": 0.0,
        "current_A_B": 11.484,
        "power_W_B": 1335.3,
        "pf_B": 0.99,
        "freq_Hz_B": 58.99,
        "energy_Wh_B": 1036610,
        "energy_reverse_Wh_B": null,
        "energy_Wh_B_delta_ultimas_2": 1890,
        "energy_reverse_Wh_B_delta_ultimas_2": null,
        "direction_B": null,
        "voltage_V_C": null,
        "current_A_C": null,
        "power_W_C": null,
        "pf_C": null,
        "freq_Hz_C": null,
        "energy_Wh_C": null,
        "energy_reverse_Wh_C": null,
        "energy_Wh_C_delta_ultimas_2": null,
        "energy_reverse_Wh_C_delta_ultimas_2": null,
        "direction_C": null,
        "voltage_V_D": null,
        "current_A_D": null,
        "power_W_D": null,
        "pf_D": null,
        "freq_Hz_D": null,
        "energy_Wh_D": null,
        "energy_reverse_Wh_D": null,
        "energy_Wh_D_delta_ultimas_2": null,
        "energy_reverse_Wh_D_delta_ultimas_2": null,
        "direction_D": null,
        "energy_Wh_delta_total_ultimas_2": 3670,
        "energy_reverse_Wh_delta_total_ultimas_2": null,
        "consume18_19_Wh": 3260.0,
        "consume22_23_Wh": 7210.0,
        "consume2_3_Wh": 4790.0,
        "consume5_6_Wh": 3420.0,
        "consume7_8_Wh": 2230.0,
        "consume9_10_Wh": 2690.0,
        "consume11_12_Wh": 2770.0,
        "consume13_14_Wh": 3180.0,
        "consume15_16_Wh": 3880.0,
        "consume16_17_Wh": 3670.0,
        "consumo_ultimo_dia_Wh": 37100.0,
        "timestamp_inicio_consumos": "2026-06-25 18:00:00",
        "timestamp_fin_consumos": "2026-06-26 16:00:00",
        "vivienda": "JIH-V3A",
        "archivo_origen": "JIH-V3A.csv"
      }
    },
    {
      "type": "Feature",
      "geometry": {
        "type": "Point",
        "coordinates": [
          -100.281728,
          25.660385
        ]
      },
      "properties": {
        "id_punto": "25.660385_-100.281728",
        "n_registros": 438,
        "timestamp_ultimo": "2026-06-26 16:48:00",
        "timestamp_penultimo": "2026-06-26 15:23:00",
        "voltage_V_A": 121.8,
        "current_A_A": 0.362,
        "power_W_A": 22.2,
        "pf_A": 0.5,
        "freq_Hz_A": 59.06,
        "energy_Wh_A": 217980,
        "energy_reverse_Wh_A": null,
        "energy_Wh_A_delta_ultimas_2": 30,
        "energy_reverse_Wh_A_delta_ultimas_2": null,
        "direction_A": null,
        "voltage_V_B": 0.0,
        "current_A_B": 0.889,
        "power_W_B": 96.5,
        "pf_B": 0.89,
        "freq_Hz_B": 59.06,
        "energy_Wh_B": 340600,
        "energy_reverse_Wh_B": null,
        "energy_Wh_B_delta_ultimas_2": 210,
        "energy_reverse_Wh_B_delta_ultimas_2": null,
        "direction_B": null,
        "voltage_V_C": null,
        "current_A_C": null,
        "power_W_C": null,
        "pf_C": null,
        "freq_Hz_C": null,
        "energy_Wh_C": null,
        "energy_reverse_Wh_C": null,
        "energy_Wh_C_delta_ultimas_2": null,
        "energy_reverse_Wh_C_delta_ultimas_2": null,
        "direction_C": null,
        "voltage_V_D": null,
        "current_A_D": null,
        "power_W_D": null,
        "pf_D": null,
        "freq_Hz_D": null,
        "energy_Wh_D": null,
        "energy_reverse_Wh_D": null,
        "energy_Wh_D_delta_ultimas_2": null,
        "energy_reverse_Wh_D_delta_ultimas_2": null,
        "direction_D": null,
        "energy_Wh_delta_total_ultimas_2": 240,
        "energy_reverse_Wh_delta_total_ultimas_2": null,
        "consume18_19_Wh": 120.0,
        "consume22_23_Wh": 480.0,
        "consume2_3_Wh": 2280.0,
        "consume5_6_Wh": 2100.0,
        "consume7_8_Wh": 1030.0,
        "consume9_10_Wh": 500.0,
        "consume11_12_Wh": 340.0,
        "consume13_14_Wh": 320.0,
        "consume15_16_Wh": 210.0,
        "consume16_17_Wh": 240.0,
        "consumo_ultimo_dia_Wh": 7620.0,
        "timestamp_inicio_consumos": "2026-06-25 18:00:00",
        "timestamp_fin_consumos": "2026-06-26 16:00:00",
        "vivienda": "JIH-V11",
        "archivo_origen": "JIH-V11.csv"
      }
    },
    {
      "type": "Feature",
      "geometry": {
        "type": "Point",
        "coordinates": [
          -100.293495,
          25.664247
        ]
      },
      "properties": {
        "id_punto": "25.664247_-100.293495",
        "n_registros": 438,
        "timestamp_ultimo": "2026-06-26 16:48:00",
        "timestamp_penultimo": "2026-06-26 15:23:00",
        "voltage_V_A": 124.8,
        "current_A_A": 3.386,
        "power_W_A": 339.7,
        "pf_A": 0.8,
        "freq_Hz_A": 58.99,
        "energy_Wh_A": 1002870,
        "energy_reverse_Wh_A": null,
        "energy_Wh_A_delta_ultimas_2": 600,
        "energy_reverse_Wh_A_delta_ultimas_2": null,
        "direction_A": null,
        "voltage_V_B": 0.0,
        "current_A_B": 2.143,
        "power_W_B": 119.9,
        "pf_B": 0.44,
        "freq_Hz_B": 58.99,
        "energy_Wh_B": 751220,
        "energy_reverse_Wh_B": null,
        "energy_Wh_B_delta_ultimas_2": 190,
        "energy_reverse_Wh_B_delta_ultimas_2": null,
        "direction_B": null,
        "voltage_V_C": null,
        "current_A_C": null,
        "power_W_C": null,
        "pf_C": null,
        "freq_Hz_C": null,
        "energy_Wh_C": null,
        "energy_reverse_Wh_C": null,
        "energy_Wh_C_delta_ultimas_2": null,
        "energy_reverse_Wh_C_delta_ultimas_2": null,
        "direction_C": null,
        "voltage_V_D": null,
        "current_A_D": null,
        "power_W_D": null,
        "pf_D": null,
        "freq_Hz_D": null,
        "energy_Wh_D": null,
        "energy_reverse_Wh_D": null,
        "energy_Wh_D_delta_ultimas_2": null,
        "energy_reverse_Wh_D_delta_ultimas_2": null,
        "direction_D": null,
        "energy_Wh_delta_total_ultimas_2": 790,
        "energy_reverse_Wh_delta_total_ultimas_2": null,
        "consume18_19_Wh": 2370.0,
        "consume22_23_Wh": 12350.0,
        "consume2_3_Wh": 6180.0,
        "consume5_6_Wh": 1660.0,
        "consume7_8_Wh": 990.0,
        "consume9_10_Wh": 3070.0,
        "consume11_12_Wh": 1340.0,
        "consume13_14_Wh": 2020.0,
        "consume15_16_Wh": 780.0,
        "consume16_17_Wh": 790.0,
        "consumo_ultimo_dia_Wh": 31550.0,
        "timestamp_inicio_consumos": "2026-06-25 18:00:00",
        "timestamp_fin_consumos": "2026-06-26 16:00:00",
        "vivienda": "JIH-V3",
        "archivo_origen": "JIH-V3.csv"
      }
    },
    {
      "type": "Feature",
      "geometry": {
        "type": "Point",
        "coordinates": [
          -100.293142,
          25.691261
        ]
      },
      "properties": {
        "id_punto": "25.691261_-100.293142",
        "n_registros": 362,
        "timestamp_ultimo": "2026-06-26 16:48:00",
        "timestamp_penultimo": "2026-06-26 15:23:00",
        "voltage_V_A": 0.0,
        "current_A_A": 15.185,
        "power_W_A": 1822.5,
        "pf_A": 0.0,
        "freq_Hz_A": 0.0,
        "energy_Wh_A": 0,
        "energy_reverse_Wh_A": null,
        "energy_Wh_A_delta_ultimas_2": 0,
        "energy_reverse_Wh_A_delta_ultimas_2": null,
        "direction_A": null,
        "voltage_V_B": 0.0,
        "current_A_B": 0.744,
        "power_W_B": 76.8,
        "pf_B": 0.84,
        "freq_Hz_B": 0.0,
        "energy_Wh_B": 0,
        "energy_reverse_Wh_B": null,
        "energy_Wh_B_delta_ultimas_2": 0,
        "energy_reverse_Wh_B_delta_ultimas_2": null,
        "direction_B": null,
        "voltage_V_C": null,
        "current_A_C": null,
        "power_W_C": null,
        "pf_C": null,
        "freq_Hz_C": null,
        "energy_Wh_C": null,
        "energy_reverse_Wh_C": null,
        "energy_Wh_C_delta_ultimas_2": null,
        "energy_reverse_Wh_C_delta_ultimas_2": null,
        "direction_C": null,
        "voltage_V_D": null,
        "current_A_D": null,
        "power_W_D": null,
        "pf_D": null,
        "freq_Hz_D": null,
        "energy_Wh_D": null,
        "energy_reverse_Wh_D": null,
        "energy_Wh_D_delta_ultimas_2": null,
        "energy_reverse_Wh_D_delta_ultimas_2": null,
        "direction_D": null,
        "energy_Wh_delta_total_ultimas_2": 0,
        "energy_reverse_Wh_delta_total_ultimas_2": null,
        "consume18_19_Wh": 0.0,
        "consume22_23_Wh": 0.0,
        "consume2_3_Wh": 0.0,
        "consume5_6_Wh": 0.0,
        "consume7_8_Wh": 0.0,
        "consume9_10_Wh": 0.0,
        "consume11_12_Wh": 0.0,
        "consume13_14_Wh": 0.0,
        "consume15_16_Wh": 0.0,
        "consume16_17_Wh": 0.0,
        "consumo_ultimo_dia_Wh": 0.0,
        "timestamp_inicio_consumos": "2026-06-25 18:00:00",
        "timestamp_fin_consumos": "2026-06-26 16:00:00",
        "vivienda": "JIH-V17",
        "archivo_origen": "JIH-V17.csv"
      }
    }
  ]
}