{
  "type": "FeatureCollection",
  "features": [
    {
      "type": "Feature",
      "geometry": {
        "type": "Point",
        "coordinates": [
          -100.280182,
          25.651742
        ]
      },
      "properties": {
        "id_punto": "25.651742_-100.280182",
        "n_registros": 919,
        "timestamp_ultimo": "2026-08-03 23:33:00",
        "timestamp_penultimo": "2026-08-03 20:32:00",
        "voltage_V_A": 131.4,
        "current_A_A": 7.101,
        "power_W_A": 456.5,
        "pf_A": 0.48,
        "freq_Hz_A": 59.16,
        "energy_Wh_A": 431120,
        "energy_reverse_Wh_A": null,
        "energy_Wh_A_delta_ultimas_2": 620,
        "energy_reverse_Wh_A_delta_ultimas_2": null,
        "voltage_V_B": 0,
        "current_A_B": 0.921,
        "power_W_B": 112.9,
        "pf_B": 0.93,
        "freq_Hz_B": 59.16,
        "energy_Wh_B": 75380,
        "energy_reverse_Wh_B": null,
        "energy_Wh_B_delta_ultimas_2": 200,
        "energy_reverse_Wh_B_delta_ultimas_2": null,
        "voltage_V_C": null,
        "current_A_C": null,
        "power_W_C": null,
        "pf_C": null,
        "freq_Hz_C": null,
        "energy_Wh_C": null,
        "energy_reverse_Wh_C": null,
        "energy_Wh_C_delta_ultimas_2": null,
        "energy_reverse_Wh_C_delta_ultimas_2": null,
        "voltage_V_D": null,
        "current_A_D": null,
        "power_W_D": null,
        "pf_D": null,
        "freq_Hz_D": null,
        "energy_Wh_D": null,
        "energy_reverse_Wh_D": null,
        "energy_Wh_D_delta_ultimas_2": null,
        "energy_reverse_Wh_D_delta_ultimas_2": null,
        "energy_Wh_delta_total_ultimas_2": 820,
        "energy_reverse_Wh_delta_total_ultimas_2": null,
        "consume5_6_Wh": 810.0,
        "consume8_9_Wh": 730.0,
        "consume10_11_Wh": 580.0,
        "consume12_13_Wh": 340.0,
        "consume14_15_Wh": 660.0,
        "consume15_16_Wh": 430.0,
        "consume16_17_Wh": 300.0,
        "consume17_18_Wh": 320.0,
        "consume20_21_Wh": 390.0,
        "consume23_0_Wh": 820.0,
        "consumo_ultimo_dia_Wh": 5380.0,
        "timestamp_inicio_consumos": "2026-08-03 05:00:00",
        "timestamp_fin_consumos": "2026-08-03 23:00:00"
      }
    }
  ]
}