{
  "type": "FeatureCollection",
  "features": [
    {
      "type": "Feature",
      "geometry": {
        "type": "Point",
        "coordinates": [
          -100.293267,
          25.657299
        ]
      },
      "properties": {
        "id_punto": "25.657299_-100.293267",
        "n_registros": 578,
        "timestamp_ultimo": "2026-07-09 14:57:00",
        "timestamp_penultimo": "2026-07-09 13:11:00",
        "voltage_V_A": 121.6,
        "current_A_A": 2.984,
        "power_W_A": 262.0,
        "pf_A": 0.72,
        "freq_Hz_A": 59.02,
        "energy_Wh_A": 392520,
        "energy_reverse_Wh_A": null,
        "energy_Wh_A_delta_ultimas_2": 340,
        "energy_reverse_Wh_A_delta_ultimas_2": null,
        "voltage_V_B": 0,
        "current_A_B": 1.198,
        "power_W_B": 33.3,
        "pf_B": 0.22,
        "freq_Hz_B": 59.02,
        "energy_Wh_B": 251780,
        "energy_reverse_Wh_B": null,
        "energy_Wh_B_delta_ultimas_2": 180,
        "energy_reverse_Wh_B_delta_ultimas_2": null,
        "voltage_V_C": null,
        "current_A_C": null,
        "power_W_C": null,
        "pf_C": null,
        "freq_Hz_C": null,
        "energy_Wh_C": null,
        "energy_reverse_Wh_C": null,
        "energy_Wh_C_delta_ultimas_2": null,
        "energy_reverse_Wh_C_delta_ultimas_2": null,
        "voltage_V_D": null,
        "current_A_D": null,
        "power_W_D": null,
        "pf_D": null,
        "freq_Hz_D": null,
        "energy_Wh_D": null,
        "energy_reverse_Wh_D": null,
        "energy_Wh_D_delta_ultimas_2": null,
        "energy_reverse_Wh_D_delta_ultimas_2": null,
        "energy_Wh_delta_total_ultimas_2": 520,
        "energy_reverse_Wh_delta_total_ultimas_2": null,
        "consume17_18_Wh": 400.0,
        "consume19_20_Wh": 260.0,
        "consume2_3_Wh": 2910.0,
        "consume6_7_Wh": 570.0,
        "consume9_10_Wh": 760.0,
        "consume11_12_Wh": 560.0,
        "consume13_14_Wh": 460.0,
        "consume14_15_Wh": 520.0,
        "consumo_ultimo_dia_Wh": 6440.0,
        "timestamp_inicio_consumos": "2026-07-08 17:00:00",
        "timestamp_fin_consumos": "2026-07-09 14:00:00"
      }
    }
  ]
}