{
  "type": "FeatureCollection",
  "features": [
    {
      "type": "Feature",
      "geometry": {
        "type": "Point",
        "coordinates": [
          -100.288357,
          25.646641
        ]
      },
      "properties": {
        "id_punto": "25.646641_-100.288357",
        "n_registros": 336,
        "timestamp_ultimo": "2026-06-03 13:35:00",
        "timestamp_penultimo": "2026-06-03 09:20:00",
        "voltage_V_A": 133.1,
        "current_A_A": 2.359,
        "power_W_A": 249.8,
        "pf_A": 0.79,
        "freq_Hz_A": 59.16,
        "energy_Wh_A": 212016,
        "energy_reverse_Wh_A": null,
        "energy_Wh_A_delta_ultimas_2": 94,
        "energy_reverse_Wh_A_delta_ultimas_2": null,
        "voltage_V_B": 126.1,
        "current_A_B": 0.043,
        "power_W_B": 4.1,
        "pf_B": 0.76,
        "freq_Hz_B": 59.13,
        "energy_Wh_B": 39413,
        "energy_reverse_Wh_B": null,
        "energy_Wh_B_delta_ultimas_2": 2,
        "energy_reverse_Wh_B_delta_ultimas_2": null,
        "voltage_V_C": null,
        "current_A_C": null,
        "power_W_C": null,
        "pf_C": null,
        "freq_Hz_C": null,
        "energy_Wh_C": null,
        "energy_reverse_Wh_C": null,
        "energy_Wh_C_delta_ultimas_2": null,
        "energy_reverse_Wh_C_delta_ultimas_2": null,
        "voltage_V_D": null,
        "current_A_D": null,
        "power_W_D": null,
        "pf_D": null,
        "freq_Hz_D": null,
        "energy_Wh_D": null,
        "energy_reverse_Wh_D": null,
        "energy_Wh_D_delta_ultimas_2": null,
        "energy_reverse_Wh_D_delta_ultimas_2": null,
        "energy_Wh_delta_total_ultimas_2": 96,
        "energy_reverse_Wh_delta_total_ultimas_2": null,
        "consume16_17_Wh": 132.0,
        "consume18_19_Wh": 153.0,
        "consume23_0_Wh": 302.0,
        "consume4_5_Wh": 505.0,
        "consume9_10_Wh": 194.0,
        "consume13_14_Wh": 96.0,
        "consumo_ultimo_dia_Wh": 1382.0,
        "timestamp_inicio_consumos": "2026-06-02 16:00:00",
        "timestamp_fin_consumos": "2026-06-03 13:00:00"
      }
    }
  ]
}