{
  "type": "FeatureCollection",
  "features": [
    {
      "type": "Feature",
      "geometry": {
        "type": "Point",
        "coordinates": [
          -100.293495,
          25.664247
        ]
      },
      "properties": {
        "id_punto": "25.664247_-100.293495",
        "n_registros": 984,
        "timestamp_ultimo": "2026-08-08 09:29:00",
        "timestamp_penultimo": "2026-08-08 08:40:00",
        "voltage_V_A": 127.5,
        "current_A_A": 7.192,
        "power_W_A": 902.6,
        "pf_A": 0.98,
        "freq_Hz_A": 58.98,
        "energy_Wh_A": 2320350,
        "energy_reverse_Wh_A": null,
        "energy_Wh_A_delta_ultimas_2": 660,
        "energy_reverse_Wh_A_delta_ultimas_2": null,
        "voltage_V_B": 0,
        "current_A_B": 3.254,
        "power_W_B": 339.7,
        "pf_B": 0.8,
        "freq_Hz_B": 58.98,
        "energy_Wh_B": 1659750,
        "energy_reverse_Wh_B": null,
        "energy_Wh_B_delta_ultimas_2": 310,
        "energy_reverse_Wh_B_delta_ultimas_2": null,
        "voltage_V_C": null,
        "current_A_C": null,
        "power_W_C": null,
        "pf_C": null,
        "freq_Hz_C": null,
        "energy_Wh_C": null,
        "energy_reverse_Wh_C": null,
        "energy_Wh_C_delta_ultimas_2": null,
        "energy_reverse_Wh_C_delta_ultimas_2": null,
        "voltage_V_D": null,
        "current_A_D": null,
        "power_W_D": null,
        "pf_D": null,
        "freq_Hz_D": null,
        "energy_Wh_D": null,
        "energy_reverse_Wh_D": null,
        "energy_Wh_D_delta_ultimas_2": null,
        "energy_reverse_Wh_D_delta_ultimas_2": null,
        "energy_Wh_delta_total_ultimas_2": 970,
        "energy_reverse_Wh_delta_total_ultimas_2": null,
        "consume10_11_Wh": 1450.0,
        "consume11_12_Wh": 910.0,
        "consume12_13_Wh": 1340.0,
        "consume13_14_Wh": 790.0,
        "consume14_15_Wh": 1100.0,
        "consume15_16_Wh": 1360.0,
        "consume16_17_Wh": 2190.0,
        "consume17_18_Wh": 1270.0,
        "consume18_19_Wh": 300.0,
        "consume20_21_Wh": 2320.0,
        "consume21_22_Wh": 3430.0,
        "consume22_23_Wh": 1740.0,
        "consume23_0_Wh": 1620.0,
        "consume0_1_Wh": 3670.0,
        "consume1_2_Wh": 2580.0,
        "consume2_3_Wh": 1980.0,
        "consume3_4_Wh": 1820.0,
        "consume4_5_Wh": 2380.0,
        "consume5_6_Wh": 1660.0,
        "consume7_8_Wh": 650.0,
        "consume8_9_Wh": 1830.0,
        "consume9_10_Wh": 970.0,
        "consumo_ultimo_dia_Wh": 37360.0,
        "timestamp_inicio_consumos": "2026-08-07 10:00:00",
        "timestamp_fin_consumos": "2026-08-08 09:00:00"
      }
    }
  ]
}