{
  "type": "FeatureCollection",
  "features": [
    {
      "type": "Feature",
      "geometry": {
        "type": "Point",
        "coordinates": [
          -100.291636,
          25.658491
        ]
      },
      "properties": {
        "id_punto": "25.658491_-100.291636",
        "n_registros": 142,
        "timestamp_ultimo": "2026-05-24 09:37:00",
        "timestamp_penultimo": "2026-05-24 08:04:00",
        "voltage_V_A": 0,
        "current_A_A": 0,
        "power_W_A": 1.9,
        "pf_A": 0,
        "freq_Hz_A": 0,
        "energy_Wh_A": 0,
        "energy_reverse_Wh_A": null,
        "energy_Wh_A_delta_ultimas_2": 0,
        "energy_reverse_Wh_A_delta_ultimas_2": null,
        "voltage_V_B": 0,
        "current_A_B": 1.885,
        "power_W_B": 192.7,
        "pf_B": 0.7,
        "freq_Hz_B": 0,
        "energy_Wh_B": 0,
        "energy_reverse_Wh_B": null,
        "energy_Wh_B_delta_ultimas_2": 0,
        "energy_reverse_Wh_B_delta_ultimas_2": null,
        "voltage_V_C": null,
        "current_A_C": null,
        "power_W_C": null,
        "pf_C": null,
        "freq_Hz_C": null,
        "energy_Wh_C": null,
        "energy_reverse_Wh_C": null,
        "energy_Wh_C_delta_ultimas_2": null,
        "energy_reverse_Wh_C_delta_ultimas_2": null,
        "voltage_V_D": null,
        "current_A_D": null,
        "power_W_D": null,
        "pf_D": null,
        "freq_Hz_D": null,
        "energy_Wh_D": null,
        "energy_reverse_Wh_D": null,
        "energy_Wh_D_delta_ultimas_2": null,
        "energy_reverse_Wh_D_delta_ultimas_2": null,
        "energy_Wh_delta_total_ultimas_2": 0,
        "energy_reverse_Wh_delta_total_ultimas_2": null,
        "consume11_12_Wh": 0.0,
        "consume13_14_Wh": 0.0,
        "consume14_15_Wh": 0.0,
        "consume15_16_Wh": 0.0,
        "consume16_17_Wh": 0.0,
        "consume17_18_Wh": 0.0,
        "consume18_19_Wh": 0.0,
        "consume22_23_Wh": 0.0,
        "consume1_2_Wh": 0.0,
        "consume3_4_Wh": 0.0,
        "consume5_6_Wh": 0.0,
        "consume6_7_Wh": 0.0,
        "consume8_9_Wh": 0.0,
        "consume9_10_Wh": 0.0,
        "consumo_ultimo_dia_Wh": 0.0,
        "timestamp_inicio_consumos": "2026-05-23 11:00:00",
        "timestamp_fin_consumos": "2026-05-24 09:00:00"
      }
    }
  ]
}