{
  "type": "FeatureCollection",
  "features": [
    {
      "type": "Feature",
      "geometry": {
        "type": "Point",
        "coordinates": [
          -100.29505,
          25.618982
        ]
      },
      "properties": {
        "id_punto": "25.618982_-100.29505",
        "n_registros": 111,
        "timestamp_ultimo": "2026-05-07 13:03:00",
        "timestamp_penultimo": "2026-05-07 10:27:00",
        "voltage_V_A": 131.9,
        "current_A_A": 11.417,
        "power_W_A": 1313.9,
        "pf_A": 0.87,
        "freq_Hz_A": 58.88,
        "energy_Wh_A": 17517,
        "energy_reverse_Wh_A": 11743,
        "energy_Wh_A_delta_ultimas_2": 0,
        "energy_reverse_Wh_A_delta_ultimas_2": 239,
        "direction_A": "REVERSE",
        "voltage_V_B": 131.9,
        "current_A_B": 12.146,
        "power_W_B": 1352.3,
        "pf_B": 0.84,
        "freq_Hz_B": 58.88,
        "energy_Wh_B": 12974,
        "energy_reverse_Wh_B": 13704,
        "energy_Wh_B_delta_ultimas_2": 253,
        "energy_reverse_Wh_B_delta_ultimas_2": 0,
        "direction_B": "FORWARD",
        "voltage_V_C": null,
        "current_A_C": null,
        "power_W_C": null,
        "pf_C": null,
        "freq_Hz_C": null,
        "energy_Wh_C": null,
        "energy_reverse_Wh_C": null,
        "energy_Wh_C_delta_ultimas_2": null,
        "energy_reverse_Wh_C_delta_ultimas_2": null,
        "voltage_V_D": null,
        "current_A_D": null,
        "power_W_D": null,
        "pf_D": null,
        "freq_Hz_D": null,
        "energy_Wh_D": null,
        "energy_reverse_Wh_D": null,
        "energy_Wh_D_delta_ultimas_2": null,
        "energy_reverse_Wh_D_delta_ultimas_2": null,
        "energy_Wh_delta_total_ultimas_2": 253,
        "energy_reverse_Wh_delta_total_ultimas_2": 239,
        "consume15_16": 0.098,
        "consume16_17": 0.057,
        "consume17_18": 0.038,
        "consume19_20": 0.12,
        "consume22_23": 0.318,
        "consume1_2": 0.325,
        "consume4_5": 0.257,
        "consume6_7": 0.205,
        "consume8_9": 0.136,
        "consume10_11": 0.079,
        "consume13_14": 0.253,
        "consumo_ultimo_dia_kWh": 1.886,
        "timestamp_inicio_consumos": "2026-05-06 15:00:00",
        "timestamp_fin_consumos": "2026-05-07 13:00:00"
      }
    }
  ]
}