{
  "type": "FeatureCollection",
  "features": [
    {
      "type": "Feature",
      "geometry": {
        "type": "Point",
        "coordinates": [
          -100.278048,
          25.650767
        ]
      },
      "properties": {
        "id_punto": "25.650767_-100.278048",
        "n_registros": 538,
        "timestamp_ultimo": "2026-07-12 20:48:00",
        "timestamp_penultimo": "2026-07-12 17:54:00",
        "voltage_V_A": 124.8,
        "current_A_A": 11.126,
        "power_W_A": 1359.3,
        "pf_A": 0.97,
        "freq_Hz_A": 59.07,
        "energy_Wh_A": 794240,
        "energy_reverse_Wh_A": null,
        "energy_Wh_A_delta_ultimas_2": 1360,
        "energy_reverse_Wh_A_delta_ultimas_2": null,
        "voltage_V_B": 0,
        "current_A_B": 13.191,
        "power_W_B": 1588.9,
        "pf_B": 0.96,
        "freq_Hz_B": 59.07,
        "energy_Wh_B": 759300,
        "energy_reverse_Wh_B": null,
        "energy_Wh_B_delta_ultimas_2": 1320,
        "energy_reverse_Wh_B_delta_ultimas_2": null,
        "voltage_V_C": null,
        "current_A_C": null,
        "power_W_C": null,
        "pf_C": null,
        "freq_Hz_C": null,
        "energy_Wh_C": null,
        "energy_reverse_Wh_C": null,
        "energy_Wh_C_delta_ultimas_2": null,
        "energy_reverse_Wh_C_delta_ultimas_2": null,
        "voltage_V_D": null,
        "current_A_D": null,
        "power_W_D": null,
        "pf_D": null,
        "freq_Hz_D": null,
        "energy_Wh_D": null,
        "energy_reverse_Wh_D": null,
        "energy_Wh_D_delta_ultimas_2": null,
        "energy_reverse_Wh_D_delta_ultimas_2": null,
        "energy_Wh_delta_total_ultimas_2": 2680,
        "energy_reverse_Wh_delta_total_ultimas_2": null,
        "consume2_3_Wh": 5360.0,
        "consume4_5_Wh": 1520.0,
        "consume5_6_Wh": 1090.0,
        "consume6_7_Wh": 750.0,
        "consume8_9_Wh": 1290.0,
        "consume9_10_Wh": 1000.0,
        "consume10_11_Wh": 640.0,
        "consume11_12_Wh": 420.0,
        "consume12_13_Wh": 2020.0,
        "consume13_14_Wh": 290.0,
        "consume14_15_Wh": 500.0,
        "consume15_16_Wh": 1200.0,
        "consume16_17_Wh": 700.0,
        "consume17_18_Wh": 400.0,
        "consume20_21_Wh": 2680.0,
        "consumo_ultimo_dia_Wh": 19860.0,
        "timestamp_inicio_consumos": "2026-07-12 02:00:00",
        "timestamp_fin_consumos": "2026-07-12 20:00:00"
      }
    }
  ]
}