{
  "type": "FeatureCollection",
  "features": [
    {
      "type": "Feature",
      "geometry": {
        "type": "Point",
        "coordinates": [
          -100.291879,
          25.657228
        ]
      },
      "properties": {
        "id_punto": "25.657228_-100.291879",
        "n_registros": 128,
        "timestamp_ultimo": "2026-05-08 16:34:00",
        "timestamp_penultimo": "2026-05-08 15:30:00",
        "voltage_V_A": 121.8,
        "current_A_A": 11.29,
        "power_W_A": 1341,
        "pf_A": 0.97,
        "freq_Hz_A": 59.07,
        "energy_Wh_A": 6359,
        "energy_reverse_Wh_A": null,
        "energy_Wh_A_delta_ultimas_2": 15,
        "energy_reverse_Wh_A_delta_ultimas_2": null,
        "voltage_V_B": 0,
        "current_A_B": 8.28,
        "power_W_B": 374,
        "pf_B": 0.37,
        "freq_Hz_B": 59.07,
        "energy_Wh_B": 4144,
        "energy_reverse_Wh_B": null,
        "energy_Wh_B_delta_ultimas_2": 5,
        "energy_reverse_Wh_B_delta_ultimas_2": null,
        "voltage_V_C": 121.8,
        "current_A_C": 22.32,
        "power_W_C": 2584,
        "pf_C": 0.94,
        "freq_Hz_C": 59.23,
        "energy_Wh_C": 5457,
        "energy_reverse_Wh_C": null,
        "energy_Wh_C_delta_ultimas_2": 27,
        "energy_reverse_Wh_C_delta_ultimas_2": null,
        "voltage_V_D": 0,
        "current_A_D": 0.0,
        "power_W_D": 0,
        "pf_D": 1.0,
        "freq_Hz_D": 59.23,
        "energy_Wh_D": 0,
        "energy_reverse_Wh_D": null,
        "energy_Wh_D_delta_ultimas_2": 0,
        "energy_reverse_Wh_D_delta_ultimas_2": null,
        "energy_Wh_delta_total_ultimas_2": 47,
        "energy_reverse_Wh_delta_total_ultimas_2": null,
        "consume18_19": 0.037,
        "consume21_22": 0.378,
        "consume0_1": 0.21,
        "consume1_2": 0.169,
        "consume3_4": 0.097,
        "consume4_5": 0.095,
        "consume6_7": 0.06,
        "consume8_9": 0.122,
        "consume9_10": 0.053,
        "consume11_12": 0.06,
        "consume12_13": 0.05,
        "consume14_15": 0.039,
        "consume15_16": 0.044,
        "consume16_17": 0.047,
        "consumo_ultimo_dia_kWh": 1.461,
        "timestamp_inicio_consumos": "2026-05-07 18:00:00",
        "timestamp_fin_consumos": "2026-05-08 16:00:00"
      }
    }
  ]
}