{
  "type": "FeatureCollection",
  "features": [
    {
      "type": "Feature",
      "geometry": {
        "type": "Point",
        "coordinates": [
          -100.291879,
          25.657228
        ]
      },
      "properties": {
        "id_punto": "25.657228_-100.291879",
        "n_registros": 269,
        "timestamp_ultimo": "2026-06-07 08:31:00",
        "timestamp_penultimo": "2026-06-07 06:21:00",
        "voltage_V_A": 123.5,
        "current_A_A": 2.04,
        "power_W_A": 250.4,
        "pf_A": 0.99,
        "freq_Hz_A": 59.07,
        "energy_Wh_A": 316330,
        "energy_reverse_Wh_A": null,
        "energy_Wh_A_delta_ultimas_2": 1140,
        "energy_reverse_Wh_A_delta_ultimas_2": null,
        "voltage_V_B": 0,
        "current_A_B": 1.07,
        "power_W_B": 109.1,
        "pf_B": 0.82,
        "freq_Hz_B": 59.07,
        "energy_Wh_B": 210260,
        "energy_reverse_Wh_B": null,
        "energy_Wh_B_delta_ultimas_2": 840,
        "energy_reverse_Wh_B_delta_ultimas_2": null,
        "voltage_V_C": 123.3,
        "current_A_C": 4.51,
        "power_W_C": 513.9,
        "pf_C": 0.92,
        "freq_Hz_C": 59.16,
        "energy_Wh_C": 277620,
        "energy_reverse_Wh_C": null,
        "energy_Wh_C_delta_ultimas_2": 1170,
        "energy_reverse_Wh_C_delta_ultimas_2": null,
        "voltage_V_D": 0,
        "current_A_D": 1.135,
        "power_W_D": 119.0,
        "pf_D": 0.84,
        "freq_Hz_D": 59.16,
        "energy_Wh_D": 0,
        "energy_reverse_Wh_D": null,
        "energy_Wh_D_delta_ultimas_2": 0,
        "energy_reverse_Wh_D_delta_ultimas_2": null,
        "energy_Wh_delta_total_ultimas_2": 3150,
        "energy_reverse_Wh_delta_total_ultimas_2": null,
        "consume10_11_Wh": 1620.0,
        "consume11_12_Wh": 1710.0,
        "consume12_13_Wh": 1060.0,
        "consume14_15_Wh": 1650.0,
        "consume15_16_Wh": 1460.0,
        "consume16_17_Wh": 960.0,
        "consume18_19_Wh": 1200.0,
        "consume22_23_Wh": 3180.0,
        "consume2_3_Wh": 4960.0,
        "consume4_5_Wh": 4060.0,
        "consume6_7_Wh": 2220.0,
        "consume8_9_Wh": 3150.0,
        "consumo_ultimo_dia_Wh": 27230.0,
        "timestamp_inicio_consumos": "2026-06-06 10:00:00",
        "timestamp_fin_consumos": "2026-06-07 08:00:00"
      }
    }
  ]
}