{
  "type": "FeatureCollection",
  "features": [
    {
      "type": "Feature",
      "geometry": {
        "type": "Point",
        "coordinates": [
          -100.29505,
          25.618982
        ]
      },
      "properties": {
        "id_punto": "25.618982_-100.29505",
        "n_registros": 173,
        "timestamp_ultimo": "2026-05-11 16:55:00",
        "timestamp_penultimo": "2026-05-11 16:27:00",
        "voltage_V_A": 133.2,
        "current_A_A": 1.403,
        "power_W_A": 38.4,
        "pf_A": 0.2,
        "freq_Hz_A": 58.82,
        "energy_Wh_A": 22159,
        "energy_reverse_Wh_A": 13199.0,
        "energy_Wh_A_delta_ultimas_2": 1,
        "energy_reverse_Wh_A_delta_ultimas_2": 0.0,
        "direction_A": "FORWARD",
        "voltage_V_B": 133.2,
        "current_A_B": 1.552,
        "power_W_B": 6.7,
        "pf_B": 0.03,
        "freq_Hz_B": 58.82,
        "energy_Wh_B": 14695,
        "energy_reverse_Wh_B": 17667.0,
        "energy_Wh_B_delta_ultimas_2": 3,
        "energy_reverse_Wh_B_delta_ultimas_2": 0.0,
        "direction_B": "FORWARD",
        "voltage_V_C": null,
        "current_A_C": null,
        "power_W_C": null,
        "pf_C": null,
        "freq_Hz_C": null,
        "energy_Wh_C": null,
        "energy_reverse_Wh_C": null,
        "energy_Wh_C_delta_ultimas_2": null,
        "energy_reverse_Wh_C_delta_ultimas_2": null,
        "direction_C": null,
        "voltage_V_D": null,
        "current_A_D": null,
        "power_W_D": null,
        "pf_D": null,
        "freq_Hz_D": null,
        "energy_Wh_D": null,
        "energy_reverse_Wh_D": null,
        "energy_Wh_D_delta_ultimas_2": null,
        "energy_reverse_Wh_D_delta_ultimas_2": null,
        "direction_D": null,
        "energy_Wh_delta_total_ultimas_2": 4,
        "energy_reverse_Wh_delta_total_ultimas_2": 0.0,
        "consume21_22": 0.0,
        "consume0_1": 0.0,
        "consume4_5": 0.0,
        "consume7_8": 0.0,
        "consume10_11": 0.0,
        "consume12_13": 0.0,
        "consume14_15": 0.0,
        "consume15_16": 0.0,
        "consume16_17": 36.854,
        "consumo_ultimo_dia_kWh": 36.854,
        "timestamp_inicio_consumos": "2026-05-10 21:00:00",
        "timestamp_fin_consumos": "2026-05-11 16:00:00",
        "vivienda": "Vivienda1 - Doctor",
        "archivo_origen": "Medidor1.csv"
      }
    },
    {
      "type": "Feature",
      "geometry": {
        "type": "Point",
        "coordinates": [
          -100.286587,
          25.645697
        ]
      },
      "properties": {
        "id_punto": "25.645697_-100.286587",
        "n_registros": 173,
        "timestamp_ultimo": "2026-05-11 16:55:00",
        "timestamp_penultimo": "2026-05-11 16:27:00",
        "voltage_V_A": 124.6,
        "current_A_A": 0.985,
        "power_W_A": 88.1,
        "pf_A": 0.71,
        "freq_Hz_A": 59.04,
        "energy_Wh_A": 52770,
        "energy_reverse_Wh_A": null,
        "energy_Wh_A_delta_ultimas_2": 80,
        "energy_reverse_Wh_A_delta_ultimas_2": null,
        "direction_A": null,
        "voltage_V_B": 0.0,
        "current_A_B": 0.965,
        "power_W_B": 85.8,
        "pf_B": 0.71,
        "freq_Hz_B": 59.04,
        "energy_Wh_B": 52050,
        "energy_reverse_Wh_B": null,
        "energy_Wh_B_delta_ultimas_2": 70,
        "energy_reverse_Wh_B_delta_ultimas_2": null,
        "direction_B": null,
        "voltage_V_C": 123.1,
        "current_A_C": 0.047,
        "power_W_C": 4.5,
        "pf_C": 0.78,
        "freq_Hz_C": 58.96,
        "energy_Wh_C": 19800.0,
        "energy_reverse_Wh_C": null,
        "energy_Wh_C_delta_ultimas_2": 0.0,
        "energy_reverse_Wh_C_delta_ultimas_2": null,
        "direction_C": null,
        "voltage_V_D": 0.0,
        "current_A_D": 0.05,
        "power_W_D": 4.7,
        "pf_D": 0.75,
        "freq_Hz_D": 58.96,
        "energy_Wh_D": 20980.0,
        "energy_reverse_Wh_D": null,
        "energy_Wh_D_delta_ultimas_2": 10.0,
        "energy_reverse_Wh_D_delta_ultimas_2": null,
        "direction_D": null,
        "energy_Wh_delta_total_ultimas_2": 160.0,
        "energy_reverse_Wh_delta_total_ultimas_2": null,
        "consume21_22": 0.0,
        "consume0_1": 0.0,
        "consume4_5": 0.0,
        "consume7_8": 0.0,
        "consume10_11": 0.0,
        "consume12_13": 0.0,
        "consume14_15": 0.0,
        "consume15_16": 0.0,
        "consume16_17": 145.6,
        "consumo_ultimo_dia_kWh": 145.6,
        "timestamp_inicio_consumos": "2026-05-10 21:00:00",
        "timestamp_fin_consumos": "2026-05-11 16:00:00",
        "vivienda": "JIH-V8V9",
        "archivo_origen": "JIH-V8V9.csv"
      }
    },
    {
      "type": "Feature",
      "geometry": {
        "type": "Point",
        "coordinates": [
          -100.288357,
          25.646641
        ]
      },
      "properties": {
        "id_punto": "25.646641_-100.288357",
        "n_registros": 173,
        "timestamp_ultimo": "2026-05-11 16:55:00",
        "timestamp_penultimo": "2026-05-11 16:27:00",
        "voltage_V_A": 132.0,
        "current_A_A": 1.981,
        "power_W_A": 186.1,
        "pf_A": 0.71,
        "freq_Hz_A": 59.15,
        "energy_Wh_A": 182354,
        "energy_reverse_Wh_A": null,
        "energy_Wh_A_delta_ultimas_2": 0,
        "energy_reverse_Wh_A_delta_ultimas_2": null,
        "direction_A": null,
        "voltage_V_B": 131.8,
        "current_A_B": 0.044,
        "power_W_B": 4.2,
        "pf_B": 0.73,
        "freq_Hz_B": 59.13,
        "energy_Wh_B": 29811,
        "energy_reverse_Wh_B": null,
        "energy_Wh_B_delta_ultimas_2": 1,
        "energy_reverse_Wh_B_delta_ultimas_2": null,
        "direction_B": null,
        "voltage_V_C": null,
        "current_A_C": null,
        "power_W_C": null,
        "pf_C": null,
        "freq_Hz_C": null,
        "energy_Wh_C": null,
        "energy_reverse_Wh_C": null,
        "energy_Wh_C_delta_ultimas_2": null,
        "energy_reverse_Wh_C_delta_ultimas_2": null,
        "direction_C": null,
        "voltage_V_D": null,
        "current_A_D": null,
        "power_W_D": null,
        "pf_D": null,
        "freq_Hz_D": null,
        "energy_Wh_D": null,
        "energy_reverse_Wh_D": null,
        "energy_Wh_D_delta_ultimas_2": null,
        "energy_reverse_Wh_D_delta_ultimas_2": null,
        "direction_D": null,
        "energy_Wh_delta_total_ultimas_2": 1,
        "energy_reverse_Wh_delta_total_ultimas_2": null,
        "consume21_22": 0.0,
        "consume0_1": 0.0,
        "consume4_5": 0.0,
        "consume7_8": 0.0,
        "consume10_11": 0.0,
        "consume12_13": 0.0,
        "consume14_15": 0.0,
        "consume15_16": 0.0,
        "consume16_17": 212.165,
        "consumo_ultimo_dia_kWh": 212.165,
        "timestamp_inicio_consumos": "2026-05-10 21:00:00",
        "timestamp_fin_consumos": "2026-05-11 16:00:00",
        "vivienda": "Vivienda2 - Ángel",
        "archivo_origen": "Medidor2.csv"
      }
    },
    {
      "type": "Feature",
      "geometry": {
        "type": "Point",
        "coordinates": [
          -100.279387,
          25.648629
        ]
      },
      "properties": {
        "id_punto": "25.648629_-100.279387",
        "n_registros": 173,
        "timestamp_ultimo": "2026-05-11 16:55:00",
        "timestamp_penultimo": "2026-05-11 16:27:00",
        "voltage_V_A": 124.6,
        "current_A_A": 0.391,
        "power_W_A": 21.6,
        "pf_A": 0.44,
        "freq_Hz_A": 59.18,
        "energy_Wh_A": 498310,
        "energy_reverse_Wh_A": null,
        "energy_Wh_A_delta_ultimas_2": 100,
        "energy_reverse_Wh_A_delta_ultimas_2": null,
        "direction_A": null,
        "voltage_V_B": 122.5,
        "current_A_B": 1.093,
        "power_W_B": 125.5,
        "pf_B": 0.93,
        "freq_Hz_B": 58.96,
        "energy_Wh_B": 665440,
        "energy_reverse_Wh_B": null,
        "energy_Wh_B_delta_ultimas_2": 110,
        "energy_reverse_Wh_B_delta_ultimas_2": null,
        "direction_B": null,
        "voltage_V_C": null,
        "current_A_C": null,
        "power_W_C": null,
        "pf_C": null,
        "freq_Hz_C": null,
        "energy_Wh_C": null,
        "energy_reverse_Wh_C": null,
        "energy_Wh_C_delta_ultimas_2": null,
        "energy_reverse_Wh_C_delta_ultimas_2": null,
        "direction_C": null,
        "voltage_V_D": null,
        "current_A_D": null,
        "power_W_D": null,
        "pf_D": null,
        "freq_Hz_D": null,
        "energy_Wh_D": null,
        "energy_reverse_Wh_D": null,
        "energy_Wh_D_delta_ultimas_2": null,
        "energy_reverse_Wh_D_delta_ultimas_2": null,
        "direction_D": null,
        "energy_Wh_delta_total_ultimas_2": 210,
        "energy_reverse_Wh_delta_total_ultimas_2": null,
        "consume21_22": 0.0,
        "consume0_1": 0.0,
        "consume4_5": 0.0,
        "consume7_8": 0.0,
        "consume10_11": 0.0,
        "consume12_13": 0.0,
        "consume14_15": 0.0,
        "consume15_16": 0.0,
        "consume16_17": 1163.75,
        "consumo_ultimo_dia_kWh": 1163.75,
        "timestamp_inicio_consumos": "2026-05-10 21:00:00",
        "timestamp_fin_consumos": "2026-05-11 16:00:00",
        "vivienda": "Vivienda3 - María",
        "archivo_origen": "Medidor3.csv"
      }
    },
    {
      "type": "Feature",
      "geometry": {
        "type": "Point",
        "coordinates": [
          -100.294446,
          25.649652
        ]
      },
      "properties": {
        "id_punto": "25.649652_-100.294446",
        "n_registros": 2,
        "timestamp_ultimo": "2026-05-11 16:55:00",
        "timestamp_penultimo": "2026-05-11 16:27:00",
        "voltage_V_A": 118.9,
        "current_A_A": 0.0,
        "power_W_A": 0.0,
        "pf_A": 1.0,
        "freq_Hz_A": 58.92,
        "energy_Wh_A": 36330,
        "energy_reverse_Wh_A": null,
        "energy_Wh_A_delta_ultimas_2": 50,
        "energy_reverse_Wh_A_delta_ultimas_2": null,
        "direction_A": null,
        "voltage_V_B": 0.0,
        "current_A_B": 0.059,
        "power_W_B": 3.8,
        "pf_B": 0.55,
        "freq_Hz_B": 58.92,
        "energy_Wh_B": 38030,
        "energy_reverse_Wh_B": null,
        "energy_Wh_B_delta_ultimas_2": 50,
        "energy_reverse_Wh_B_delta_ultimas_2": null,
        "direction_B": null,
        "voltage_V_C": null,
        "current_A_C": null,
        "power_W_C": null,
        "pf_C": null,
        "freq_Hz_C": null,
        "energy_Wh_C": null,
        "energy_reverse_Wh_C": null,
        "energy_Wh_C_delta_ultimas_2": null,
        "energy_reverse_Wh_C_delta_ultimas_2": null,
        "direction_C": null,
        "voltage_V_D": null,
        "current_A_D": null,
        "power_W_D": null,
        "pf_D": null,
        "freq_Hz_D": null,
        "energy_Wh_D": null,
        "energy_reverse_Wh_D": null,
        "energy_Wh_D_delta_ultimas_2": null,
        "energy_reverse_Wh_D_delta_ultimas_2": null,
        "direction_D": null,
        "energy_Wh_delta_total_ultimas_2": 100,
        "energy_reverse_Wh_delta_total_ultimas_2": null,
        "vivienda": "JIH-V19",
        "archivo_origen": "JIH-V19.csv"
      }
    },
    {
      "type": "Feature",
      "geometry": {
        "type": "Point",
        "coordinates": [
          -100.278294,
          25.650309
        ]
      },
      "properties": {
        "id_punto": "25.650309_-100.278294",
        "n_registros": 173,
        "timestamp_ultimo": "2026-05-11 16:55:00",
        "timestamp_penultimo": "2026-05-11 16:27:00",
        "voltage_V_A": 123.1,
        "current_A_A": 3.348,
        "power_W_A": 397.8,
        "pf_A": 0.97,
        "freq_Hz_A": 58.85,
        "energy_Wh_A": 89890,
        "energy_reverse_Wh_A": null,
        "energy_Wh_A_delta_ultimas_2": 180,
        "energy_reverse_Wh_A_delta_ultimas_2": null,
        "direction_A": null,
        "voltage_V_B": 0.0,
        "current_A_B": 3.32,
        "power_W_B": 398.6,
        "pf_B": 0.97,
        "freq_Hz_B": 58.85,
        "energy_Wh_B": 90110,
        "energy_reverse_Wh_B": null,
        "energy_Wh_B_delta_ultimas_2": 180,
        "energy_reverse_Wh_B_delta_ultimas_2": null,
        "direction_B": null,
        "voltage_V_C": 0.0,
        "current_A_C": 0.046,
        "power_W_C": 2.7,
        "pf_C": 0.0,
        "freq_Hz_C": 0.0,
        "energy_Wh_C": 0.0,
        "energy_reverse_Wh_C": null,
        "energy_Wh_C_delta_ultimas_2": 0.0,
        "energy_reverse_Wh_C_delta_ultimas_2": null,
        "direction_C": null,
        "voltage_V_D": 0.0,
        "current_A_D": 0.031,
        "power_W_D": 1.5,
        "pf_D": 1.0,
        "freq_Hz_D": 0.0,
        "energy_Wh_D": 0.0,
        "energy_reverse_Wh_D": null,
        "energy_Wh_D_delta_ultimas_2": 0.0,
        "energy_reverse_Wh_D_delta_ultimas_2": null,
        "direction_D": null,
        "energy_Wh_delta_total_ultimas_2": 360.0,
        "energy_reverse_Wh_delta_total_ultimas_2": null,
        "consume21_22": 0.0,
        "consume0_1": 0.0,
        "consume4_5": 0.0,
        "consume7_8": 0.0,
        "consume10_11": 0.0,
        "consume12_13": 0.0,
        "consume14_15": 0.0,
        "consume15_16": 0.0,
        "consume16_17": 180.0,
        "consumo_ultimo_dia_kWh": 180.0,
        "timestamp_inicio_consumos": "2026-05-10 21:00:00",
        "timestamp_fin_consumos": "2026-05-11 16:00:00",
        "vivienda": "JIH-V7",
        "archivo_origen": "JIH-V7.csv"
      }
    },
    {
      "type": "Feature",
      "geometry": {
        "type": "Point",
        "coordinates": [
          -100.293008,
          25.651085
        ]
      },
      "properties": {
        "id_punto": "25.651085_-100.293008",
        "n_registros": 173,
        "timestamp_ultimo": "2026-05-11 16:55:00",
        "timestamp_penultimo": "2026-05-11 16:27:00",
        "voltage_V_A": 131.9,
        "current_A_A": 7.979,
        "power_W_A": 620.0,
        "pf_A": 0.58,
        "freq_Hz_A": 58.87,
        "energy_Wh_A": 147680,
        "energy_reverse_Wh_A": null,
        "energy_Wh_A_delta_ultimas_2": 360,
        "energy_reverse_Wh_A_delta_ultimas_2": null,
        "direction_A": null,
        "voltage_V_B": 0.0,
        "current_A_B": 0.951,
        "power_W_B": 97.6,
        "pf_B": 0.77,
        "freq_Hz_B": 58.87,
        "energy_Wh_B": 108060,
        "energy_reverse_Wh_B": null,
        "energy_Wh_B_delta_ultimas_2": 180,
        "energy_reverse_Wh_B_delta_ultimas_2": null,
        "direction_B": null,
        "voltage_V_C": 133.2,
        "current_A_C": 1.403,
        "power_W_C": 38.4,
        "pf_C": 0.2,
        "freq_Hz_C": 58.82,
        "energy_Wh_C": 22159.0,
        "energy_reverse_Wh_C": 13199.0,
        "energy_Wh_C_delta_ultimas_2": 1.0,
        "energy_reverse_Wh_C_delta_ultimas_2": 0.0,
        "direction_C": "FORWARD",
        "voltage_V_D": 133.2,
        "current_A_D": 1.552,
        "power_W_D": 6.7,
        "pf_D": 0.03,
        "freq_Hz_D": 58.82,
        "energy_Wh_D": 14695.0,
        "energy_reverse_Wh_D": 17667.0,
        "energy_Wh_D_delta_ultimas_2": 3.0,
        "energy_reverse_Wh_D_delta_ultimas_2": 0.0,
        "direction_D": "FORWARD",
        "energy_Wh_delta_total_ultimas_2": 544.0,
        "energy_reverse_Wh_delta_total_ultimas_2": 0.0,
        "consume21_22": 0.0,
        "consume0_1": 0.0,
        "consume4_5": 0.0,
        "consume7_8": 0.0,
        "consume10_11": 0.0,
        "consume12_13": 0.0,
        "consume14_15": 0.0,
        "consume15_16": 0.0,
        "consume16_17": 292.594,
        "consumo_ultimo_dia_kWh": 292.594,
        "timestamp_inicio_consumos": "2026-05-10 21:00:00",
        "timestamp_fin_consumos": "2026-05-11 16:00:00",
        "vivienda": "DistritoTec",
        "archivo_origen": "DistritoTec.csv"
      }
    },
    {
      "type": "Feature",
      "geometry": {
        "type": "Point",
        "coordinates": [
          -100.280182,
          25.651742
        ]
      },
      "properties": {
        "id_punto": "25.651742_-100.280182",
        "n_registros": 173,
        "timestamp_ultimo": "2026-05-11 16:55:00",
        "timestamp_penultimo": "2026-05-11 16:27:00",
        "voltage_V_A": 128.3,
        "current_A_A": 0.953,
        "power_W_A": 23.3,
        "pf_A": 0.19,
        "freq_Hz_A": 59.15,
        "energy_Wh_A": 52970,
        "energy_reverse_Wh_A": null,
        "energy_Wh_A_delta_ultimas_2": 30,
        "energy_reverse_Wh_A_delta_ultimas_2": null,
        "direction_A": null,
        "voltage_V_B": 0.0,
        "current_A_B": 0.11,
        "power_W_B": 12.5,
        "pf_B": 0.88,
        "freq_Hz_B": 59.15,
        "energy_Wh_B": 6370,
        "energy_reverse_Wh_B": null,
        "energy_Wh_B_delta_ultimas_2": 10,
        "energy_reverse_Wh_B_delta_ultimas_2": null,
        "direction_B": null,
        "voltage_V_C": null,
        "current_A_C": null,
        "power_W_C": null,
        "pf_C": null,
        "freq_Hz_C": null,
        "energy_Wh_C": null,
        "energy_reverse_Wh_C": null,
        "energy_Wh_C_delta_ultimas_2": null,
        "energy_reverse_Wh_C_delta_ultimas_2": null,
        "direction_C": null,
        "voltage_V_D": null,
        "current_A_D": null,
        "power_W_D": null,
        "pf_D": null,
        "freq_Hz_D": null,
        "energy_Wh_D": null,
        "energy_reverse_Wh_D": null,
        "energy_Wh_D_delta_ultimas_2": null,
        "energy_reverse_Wh_D_delta_ultimas_2": null,
        "direction_D": null,
        "energy_Wh_delta_total_ultimas_2": 40,
        "energy_reverse_Wh_delta_total_ultimas_2": null,
        "consume21_22": 0.0,
        "consume0_1": 0.0,
        "consume4_5": 0.0,
        "consume7_8": 0.0,
        "consume10_11": 0.0,
        "consume12_13": 0.0,
        "consume14_15": 0.0,
        "consume15_16": 0.0,
        "consume16_17": 59.34,
        "consumo_ultimo_dia_kWh": 59.34,
        "timestamp_inicio_consumos": "2026-05-10 21:00:00",
        "timestamp_fin_consumos": "2026-05-11 16:00:00",
        "vivienda": "JIH-V",
        "archivo_origen": "JIH-V.csv"
      }
    },
    {
      "type": "Feature",
      "geometry": {
        "type": "Point",
        "coordinates": [
          -100.291879,
          25.657228
        ]
      },
      "properties": {
        "id_punto": "25.657228_-100.291879",
        "n_registros": 173,
        "timestamp_ultimo": "2026-05-11 16:55:00",
        "timestamp_penultimo": "2026-05-11 16:27:00",
        "voltage_V_A": 122.2,
        "current_A_A": 1.413,
        "power_W_A": 167.3,
        "pf_A": 0.96,
        "freq_Hz_A": 59.09,
        "energy_Wh_A": 84570,
        "energy_reverse_Wh_A": null,
        "energy_Wh_A_delta_ultimas_2": 80,
        "energy_reverse_Wh_A_delta_ultimas_2": null,
        "direction_A": null,
        "voltage_V_B": 0.0,
        "current_A_B": 1.372,
        "power_W_B": 124.3,
        "pf_B": 0.74,
        "freq_Hz_B": 59.09,
        "energy_Wh_B": 57000,
        "energy_reverse_Wh_B": null,
        "energy_Wh_B_delta_ultimas_2": 50,
        "energy_reverse_Wh_B_delta_ultimas_2": null,
        "direction_B": null,
        "voltage_V_C": 122.0,
        "current_A_C": 2.181,
        "power_W_C": 195.9,
        "pf_C": 0.73,
        "freq_Hz_C": 59.23,
        "energy_Wh_C": 75900.0,
        "energy_reverse_Wh_C": null,
        "energy_Wh_C_delta_ultimas_2": 110.0,
        "energy_reverse_Wh_C_delta_ultimas_2": null,
        "direction_C": null,
        "voltage_V_D": 0.0,
        "current_A_D": 0.0,
        "power_W_D": 0.0,
        "pf_D": 1.0,
        "freq_Hz_D": 59.23,
        "energy_Wh_D": 0.0,
        "energy_reverse_Wh_D": null,
        "energy_Wh_D_delta_ultimas_2": 0.0,
        "energy_reverse_Wh_D_delta_ultimas_2": null,
        "direction_D": null,
        "energy_Wh_delta_total_ultimas_2": 240.0,
        "energy_reverse_Wh_delta_total_ultimas_2": null,
        "consume21_22": 0.0,
        "consume0_1": 0.0,
        "consume4_5": 0.0,
        "consume7_8": 0.0,
        "consume10_11": 0.0,
        "consume12_13": 0.0,
        "consume14_15": 0.0,
        "consume15_16": 0.0,
        "consume16_17": 217.47,
        "consumo_ultimo_dia_kWh": 217.47,
        "timestamp_inicio_consumos": "2026-05-10 21:00:00",
        "timestamp_fin_consumos": "2026-05-11 16:00:00",
        "vivienda": "JIH-V1V2",
        "archivo_origen": "JIH-V1V2.csv"
      }
    },
    {
      "type": "Feature",
      "geometry": {
        "type": "Point",
        "coordinates": [
          -100.293267,
          25.657299
        ]
      },
      "properties": {
        "id_punto": "25.657299_-100.293267",
        "n_registros": 173,
        "timestamp_ultimo": "2026-05-11 16:55:00",
        "timestamp_penultimo": "2026-05-11 16:27:00",
        "voltage_V_A": 122.5,
        "current_A_A": 1.281,
        "power_W_A": 28.0,
        "pf_A": 0.17,
        "freq_Hz_A": 59.02,
        "energy_Wh_A": 56500,
        "energy_reverse_Wh_A": null,
        "energy_Wh_A_delta_ultimas_2": 30,
        "energy_reverse_Wh_A_delta_ultimas_2": null,
        "direction_A": null,
        "voltage_V_B": 0.0,
        "current_A_B": 1.184,
        "power_W_B": 26.2,
        "pf_B": 0.18,
        "freq_Hz_B": 59.02,
        "energy_Wh_B": 35190,
        "energy_reverse_Wh_B": null,
        "energy_Wh_B_delta_ultimas_2": 90,
        "energy_reverse_Wh_B_delta_ultimas_2": null,
        "direction_B": null,
        "voltage_V_C": null,
        "current_A_C": null,
        "power_W_C": null,
        "pf_C": null,
        "freq_Hz_C": null,
        "energy_Wh_C": null,
        "energy_reverse_Wh_C": null,
        "energy_Wh_C_delta_ultimas_2": null,
        "energy_reverse_Wh_C_delta_ultimas_2": null,
        "direction_C": null,
        "voltage_V_D": null,
        "current_A_D": null,
        "power_W_D": null,
        "pf_D": null,
        "freq_Hz_D": null,
        "energy_Wh_D": null,
        "energy_reverse_Wh_D": null,
        "energy_Wh_D_delta_ultimas_2": null,
        "energy_reverse_Wh_D_delta_ultimas_2": null,
        "direction_D": null,
        "energy_Wh_delta_total_ultimas_2": 120,
        "energy_reverse_Wh_delta_total_ultimas_2": null,
        "consume21_22": 0.0,
        "consume0_1": 0.0,
        "consume4_5": 0.0,
        "consume7_8": 0.0,
        "consume10_11": 0.0,
        "consume12_13": 0.0,
        "consume14_15": 0.0,
        "consume15_16": 0.0,
        "consume16_17": 91.69,
        "consumo_ultimo_dia_kWh": 91.69,
        "timestamp_inicio_consumos": "2026-05-10 21:00:00",
        "timestamp_fin_consumos": "2026-05-11 16:00:00",
        "vivienda": "JIH-V5",
        "archivo_origen": "JIH-V5.csv"
      }
    },
    {
      "type": "Feature",
      "geometry": {
        "type": "Point",
        "coordinates": [
          -100.291636,
          25.658491
        ]
      },
      "properties": {
        "id_punto": "25.658491_-100.291636",
        "n_registros": 2,
        "timestamp_ultimo": "2026-05-11 16:55:00",
        "timestamp_penultimo": "2026-05-11 16:27:00",
        "voltage_V_A": 0.0,
        "current_A_A": 0.0,
        "power_W_A": 1.9,
        "pf_A": 0.0,
        "freq_Hz_A": 0.0,
        "energy_Wh_A": 0,
        "energy_reverse_Wh_A": null,
        "energy_Wh_A_delta_ultimas_2": 0,
        "energy_reverse_Wh_A_delta_ultimas_2": null,
        "direction_A": null,
        "voltage_V_B": 0.0,
        "current_A_B": 1.885,
        "power_W_B": 192.7,
        "pf_B": 0.7,
        "freq_Hz_B": 0.0,
        "energy_Wh_B": 0,
        "energy_reverse_Wh_B": null,
        "energy_Wh_B_delta_ultimas_2": 0,
        "energy_reverse_Wh_B_delta_ultimas_2": null,
        "direction_B": null,
        "voltage_V_C": null,
        "current_A_C": null,
        "power_W_C": null,
        "pf_C": null,
        "freq_Hz_C": null,
        "energy_Wh_C": null,
        "energy_reverse_Wh_C": null,
        "energy_Wh_C_delta_ultimas_2": null,
        "energy_reverse_Wh_C_delta_ultimas_2": null,
        "direction_C": null,
        "voltage_V_D": null,
        "current_A_D": null,
        "power_W_D": null,
        "pf_D": null,
        "freq_Hz_D": null,
        "energy_Wh_D": null,
        "energy_reverse_Wh_D": null,
        "energy_Wh_D_delta_ultimas_2": null,
        "energy_reverse_Wh_D_delta_ultimas_2": null,
        "direction_D": null,
        "energy_Wh_delta_total_ultimas_2": 0,
        "energy_reverse_Wh_delta_total_ultimas_2": null,
        "vivienda": "JIH-V13",
        "archivo_origen": "JIH-V13.csv"
      }
    },
    {
      "type": "Feature",
      "geometry": {
        "type": "Point",
        "coordinates": [
          -100.292083,
          25.658877
        ]
      },
      "properties": {
        "id_punto": "25.658877_-100.292083",
        "n_registros": 173,
        "timestamp_ultimo": "2026-05-11 16:55:00",
        "timestamp_penultimo": "2026-05-11 16:27:00",
        "voltage_V_A": 118.6,
        "current_A_A": 9.01,
        "power_W_A": 1064.1,
        "pf_A": 0.99,
        "freq_Hz_A": 59.01,
        "energy_Wh_A": 167220,
        "energy_reverse_Wh_A": null,
        "energy_Wh_A_delta_ultimas_2": 420,
        "energy_reverse_Wh_A_delta_ultimas_2": null,
        "direction_A": null,
        "voltage_V_B": 0.0,
        "current_A_B": 9.862,
        "power_W_B": 1164.1,
        "pf_B": 0.99,
        "freq_Hz_B": 59.01,
        "energy_Wh_B": 185740,
        "energy_reverse_Wh_B": null,
        "energy_Wh_B_delta_ultimas_2": 570,
        "energy_reverse_Wh_B_delta_ultimas_2": null,
        "direction_B": null,
        "voltage_V_C": null,
        "current_A_C": null,
        "power_W_C": null,
        "pf_C": null,
        "freq_Hz_C": null,
        "energy_Wh_C": null,
        "energy_reverse_Wh_C": null,
        "energy_Wh_C_delta_ultimas_2": null,
        "energy_reverse_Wh_C_delta_ultimas_2": null,
        "direction_C": null,
        "voltage_V_D": null,
        "current_A_D": null,
        "power_W_D": null,
        "pf_D": null,
        "freq_Hz_D": null,
        "energy_Wh_D": null,
        "energy_reverse_Wh_D": null,
        "energy_Wh_D_delta_ultimas_2": null,
        "energy_reverse_Wh_D_delta_ultimas_2": null,
        "direction_D": null,
        "energy_Wh_delta_total_ultimas_2": 990,
        "energy_reverse_Wh_delta_total_ultimas_2": null,
        "consume21_22": 0.0,
        "consume0_1": 0.0,
        "consume4_5": 0.0,
        "consume7_8": 0.0,
        "consume10_11": 0.0,
        "consume12_13": 0.0,
        "consume14_15": 0.0,
        "consume15_16": 0.0,
        "consume16_17": 352.96,
        "consumo_ultimo_dia_kWh": 352.96,
        "timestamp_inicio_consumos": "2026-05-10 21:00:00",
        "timestamp_fin_consumos": "2026-05-11 16:00:00",
        "vivienda": "JIH-V3A",
        "archivo_origen": "JIH-V3A.csv"
      }
    },
    {
      "type": "Feature",
      "geometry": {
        "type": "Point",
        "coordinates": [
          -100.281728,
          25.660385
        ]
      },
      "properties": {
        "id_punto": "25.660385_-100.281728",
        "n_registros": 2,
        "timestamp_ultimo": "2026-05-11 16:55:00",
        "timestamp_penultimo": "2026-05-11 16:27:00",
        "voltage_V_A": 125.1,
        "current_A_A": 0.33,
        "power_W_A": 22.0,
        "pf_A": 0.53,
        "freq_Hz_A": 59.07,
        "energy_Wh_A": 20270,
        "energy_reverse_Wh_A": null,
        "energy_Wh_A_delta_ultimas_2": 10,
        "energy_reverse_Wh_A_delta_ultimas_2": null,
        "direction_A": null,
        "voltage_V_B": 0.0,
        "current_A_B": 0.727,
        "power_W_B": 82.1,
        "pf_B": 0.9,
        "freq_Hz_B": 59.07,
        "energy_Wh_B": 35160,
        "energy_reverse_Wh_B": null,
        "energy_Wh_B_delta_ultimas_2": 50,
        "energy_reverse_Wh_B_delta_ultimas_2": null,
        "direction_B": null,
        "voltage_V_C": null,
        "current_A_C": null,
        "power_W_C": null,
        "pf_C": null,
        "freq_Hz_C": null,
        "energy_Wh_C": null,
        "energy_reverse_Wh_C": null,
        "energy_Wh_C_delta_ultimas_2": null,
        "energy_reverse_Wh_C_delta_ultimas_2": null,
        "direction_C": null,
        "voltage_V_D": null,
        "current_A_D": null,
        "power_W_D": null,
        "pf_D": null,
        "freq_Hz_D": null,
        "energy_Wh_D": null,
        "energy_reverse_Wh_D": null,
        "energy_Wh_D_delta_ultimas_2": null,
        "energy_reverse_Wh_D_delta_ultimas_2": null,
        "direction_D": null,
        "energy_Wh_delta_total_ultimas_2": 60,
        "energy_reverse_Wh_delta_total_ultimas_2": null,
        "vivienda": "JIH-V11",
        "archivo_origen": "JIH-V11.csv"
      }
    },
    {
      "type": "Feature",
      "geometry": {
        "type": "Point",
        "coordinates": [
          -100.293495,
          25.664247
        ]
      },
      "properties": {
        "id_punto": "25.664247_-100.293495",
        "n_registros": 173,
        "timestamp_ultimo": "2026-05-11 16:55:00",
        "timestamp_penultimo": "2026-05-11 16:27:00",
        "voltage_V_A": 126.3,
        "current_A_A": 2.914,
        "power_W_A": 311.0,
        "pf_A": 0.84,
        "freq_Hz_A": 58.99,
        "energy_Wh_A": 22180,
        "energy_reverse_Wh_A": null,
        "energy_Wh_A_delta_ultimas_2": 0,
        "energy_reverse_Wh_A_delta_ultimas_2": null,
        "direction_A": null,
        "voltage_V_B": 0.0,
        "current_A_B": 2.162,
        "power_W_B": 129.4,
        "pf_B": 0.47,
        "freq_Hz_B": 58.99,
        "energy_Wh_B": 19010,
        "energy_reverse_Wh_B": null,
        "energy_Wh_B_delta_ultimas_2": 0,
        "energy_reverse_Wh_B_delta_ultimas_2": null,
        "direction_B": null,
        "voltage_V_C": null,
        "current_A_C": null,
        "power_W_C": null,
        "pf_C": null,
        "freq_Hz_C": null,
        "energy_Wh_C": null,
        "energy_reverse_Wh_C": null,
        "energy_Wh_C_delta_ultimas_2": null,
        "energy_reverse_Wh_C_delta_ultimas_2": null,
        "direction_C": null,
        "voltage_V_D": null,
        "current_A_D": null,
        "power_W_D": null,
        "pf_D": null,
        "freq_Hz_D": null,
        "energy_Wh_D": null,
        "energy_reverse_Wh_D": null,
        "energy_Wh_D_delta_ultimas_2": null,
        "energy_reverse_Wh_D_delta_ultimas_2": null,
        "direction_D": null,
        "energy_Wh_delta_total_ultimas_2": 0,
        "energy_reverse_Wh_delta_total_ultimas_2": null,
        "consume21_22": 0.0,
        "consume0_1": 0.0,
        "consume4_5": 0.0,
        "consume7_8": 0.0,
        "consume10_11": 0.0,
        "consume12_13": 0.0,
        "consume14_15": 0.0,
        "consume15_16": 0.0,
        "consume16_17": 41.19,
        "consumo_ultimo_dia_kWh": 41.19,
        "timestamp_inicio_consumos": "2026-05-10 21:00:00",
        "timestamp_fin_consumos": "2026-05-11 16:00:00",
        "vivienda": "JIH-V3",
        "archivo_origen": "JIH-V3.csv"
      }
    }
  ]
}