{
  "type": "FeatureCollection",
  "features": [
    {
      "type": "Feature",
      "geometry": {
        "type": "Point",
        "coordinates": [
          -100.281728,
          25.660385
        ]
      },
      "properties": {
        "id_punto": "25.660385_-100.281728",
        "n_registros": 3,
        "timestamp_ultimo": "2026-05-11 17:59:00",
        "timestamp_penultimo": "2026-05-11 16:55:00",
        "voltage_V_A": 126.3,
        "current_A_A": 0.328,
        "power_W_A": 21.8,
        "pf_A": 0.52,
        "freq_Hz_A": 59.09,
        "energy_Wh_A": 20300,
        "energy_reverse_Wh_A": null,
        "energy_Wh_A_delta_ultimas_2": 30,
        "energy_reverse_Wh_A_delta_ultimas_2": null,
        "voltage_V_B": 0,
        "current_A_B": 0.742,
        "power_W_B": 84.3,
        "pf_B": 0.89,
        "freq_Hz_B": 59.09,
        "energy_Wh_B": 35290,
        "energy_reverse_Wh_B": null,
        "energy_Wh_B_delta_ultimas_2": 130,
        "energy_reverse_Wh_B_delta_ultimas_2": null,
        "voltage_V_C": null,
        "current_A_C": null,
        "power_W_C": null,
        "pf_C": null,
        "freq_Hz_C": null,
        "energy_Wh_C": null,
        "energy_reverse_Wh_C": null,
        "energy_Wh_C_delta_ultimas_2": null,
        "energy_reverse_Wh_C_delta_ultimas_2": null,
        "voltage_V_D": null,
        "current_A_D": null,
        "power_W_D": null,
        "pf_D": null,
        "freq_Hz_D": null,
        "energy_Wh_D": null,
        "energy_reverse_Wh_D": null,
        "energy_Wh_D_delta_ultimas_2": null,
        "energy_reverse_Wh_D_delta_ultimas_2": null,
        "energy_Wh_delta_total_ultimas_2": 160,
        "energy_reverse_Wh_delta_total_ultimas_2": null,
        "consume17_18": 0.16,
        "consumo_ultimo_dia_kWh": 0.16,
        "timestamp_inicio_consumos": "2026-05-11 17:00:00",
        "timestamp_fin_consumos": "2026-05-11 17:00:00"
      }
    }
  ]
}