{
  "type": "FeatureCollection",
  "features": [
    {
      "type": "Feature",
      "geometry": {
        "type": "Point",
        "coordinates": [
          -100.286587,
          25.645697
        ]
      },
      "properties": {
        "id_punto": "25.645697_-100.286587",
        "n_registros": 832,
        "timestamp_ultimo": "2026-07-28 06:53:00",
        "timestamp_penultimo": "2026-07-28 04:46:00",
        "voltage_V_A": 123.6,
        "current_A_A": 2.078,
        "power_W_A": 169.9,
        "pf_A": 0.66,
        "freq_Hz_A": 59.06,
        "energy_Wh_A": 369950,
        "energy_reverse_Wh_A": null,
        "energy_Wh_A_delta_ultimas_2": 320,
        "energy_reverse_Wh_A_delta_ultimas_2": null,
        "voltage_V_B": 0,
        "current_A_B": 2.071,
        "power_W_B": 169.2,
        "pf_B": 0.65,
        "freq_Hz_B": 59.06,
        "energy_Wh_B": 368280,
        "energy_reverse_Wh_B": null,
        "energy_Wh_B_delta_ultimas_2": 320,
        "energy_reverse_Wh_B_delta_ultimas_2": null,
        "voltage_V_C": 121.6,
        "current_A_C": 0.045,
        "power_W_C": 4.3,
        "pf_C": 0.78,
        "freq_Hz_C": 58.93,
        "energy_Wh_C": 107510,
        "energy_reverse_Wh_C": null,
        "energy_Wh_C_delta_ultimas_2": 0,
        "energy_reverse_Wh_C_delta_ultimas_2": null,
        "voltage_V_D": 0,
        "current_A_D": 0.049,
        "power_W_D": 4.6,
        "pf_D": 0.76,
        "freq_Hz_D": 58.93,
        "energy_Wh_D": 111800,
        "energy_reverse_Wh_D": null,
        "energy_Wh_D_delta_ultimas_2": 0,
        "energy_reverse_Wh_D_delta_ultimas_2": null,
        "energy_Wh_delta_total_ultimas_2": 640,
        "energy_reverse_Wh_delta_total_ultimas_2": null,
        "consume10_11_Wh": 530.0,
        "consume12_13_Wh": 460.0,
        "consume13_14_Wh": 400.0,
        "consume15_16_Wh": 300.0,
        "consume16_17_Wh": 400.0,
        "consume17_18_Wh": 320.0,
        "consume20_21_Wh": 890.0,
        "consume23_0_Wh": 1000.0,
        "consume2_3_Wh": 800.0,
        "consume4_5_Wh": 820.0,
        "consume6_7_Wh": 640.0,
        "consumo_ultimo_dia_Wh": 6560.0,
        "timestamp_inicio_consumos": "2026-07-27 10:00:00",
        "timestamp_fin_consumos": "2026-07-28 06:00:00"
      }
    }
  ]
}