{
  "type": "FeatureCollection",
  "features": [
    {
      "type": "Feature",
      "geometry": {
        "type": "Point",
        "coordinates": [
          -100.293267,
          25.657299
        ]
      },
      "properties": {
        "id_punto": "25.657299_-100.293267",
        "n_registros": 128,
        "timestamp_ultimo": "2026-05-08 16:34:00",
        "timestamp_penultimo": "2026-05-08 15:30:00",
        "voltage_V_A": 123.3,
        "current_A_A": 16.5,
        "power_W_A": 1273,
        "pf_A": 0.62,
        "freq_Hz_A": 59.01,
        "energy_Wh_A": 3648,
        "energy_reverse_Wh_A": null,
        "energy_Wh_A_delta_ultimas_2": 13,
        "energy_reverse_Wh_A_delta_ultimas_2": null,
        "voltage_V_B": 0,
        "current_A_B": 12.95,
        "power_W_B": 461,
        "pf_B": 0.28,
        "freq_Hz_B": 59.01,
        "energy_Wh_B": 2038,
        "energy_reverse_Wh_B": null,
        "energy_Wh_B_delta_ultimas_2": 15,
        "energy_reverse_Wh_B_delta_ultimas_2": null,
        "voltage_V_C": null,
        "current_A_C": null,
        "power_W_C": null,
        "pf_C": null,
        "freq_Hz_C": null,
        "energy_Wh_C": null,
        "energy_reverse_Wh_C": null,
        "energy_Wh_C_delta_ultimas_2": null,
        "energy_reverse_Wh_C_delta_ultimas_2": null,
        "voltage_V_D": null,
        "current_A_D": null,
        "power_W_D": null,
        "pf_D": null,
        "freq_Hz_D": null,
        "energy_Wh_D": null,
        "energy_reverse_Wh_D": null,
        "energy_Wh_D_delta_ultimas_2": null,
        "energy_reverse_Wh_D_delta_ultimas_2": null,
        "energy_Wh_delta_total_ultimas_2": 28,
        "energy_reverse_Wh_delta_total_ultimas_2": null,
        "consume18_19": 0.016,
        "consume21_22": 0.081,
        "consume0_1": 0.045,
        "consume1_2": 0.028,
        "consume3_4": 0.025,
        "consume4_5": 0.026,
        "consume6_7": 0.014,
        "consume8_9": 0.042,
        "consume9_10": 0.052,
        "consume11_12": 0.045,
        "consume12_13": 0.048,
        "consume14_15": 0.043,
        "consume15_16": 0.038,
        "consume16_17": 0.028,
        "consumo_ultimo_dia_kWh": 0.531,
        "timestamp_inicio_consumos": "2026-05-07 18:00:00",
        "timestamp_fin_consumos": "2026-05-08 16:00:00"
      }
    }
  ]
}