{
  "type": "FeatureCollection",
  "features": [
    {
      "type": "Feature",
      "geometry": {
        "type": "Point",
        "coordinates": [
          -100.281728,
          25.660385
        ]
      },
      "properties": {
        "id_punto": "25.660385_-100.281728",
        "n_registros": 519,
        "timestamp_ultimo": "2026-07-04 07:26:00",
        "timestamp_penultimo": "2026-07-04 05:47:00",
        "voltage_V_A": 125.4,
        "current_A_A": 3.9,
        "power_W_A": 464.5,
        "pf_A": 0.94,
        "freq_Hz_A": 59.09,
        "energy_Wh_A": 256970,
        "energy_reverse_Wh_A": null,
        "energy_Wh_A_delta_ultimas_2": 360,
        "energy_reverse_Wh_A_delta_ultimas_2": null,
        "voltage_V_B": 0,
        "current_A_B": 3.893,
        "power_W_B": 465.7,
        "pf_B": 0.95,
        "freq_Hz_B": 59.09,
        "energy_Wh_B": 394300,
        "energy_reverse_Wh_B": null,
        "energy_Wh_B_delta_ultimas_2": 490,
        "energy_reverse_Wh_B_delta_ultimas_2": null,
        "voltage_V_C": null,
        "current_A_C": null,
        "power_W_C": null,
        "pf_C": null,
        "freq_Hz_C": null,
        "energy_Wh_C": null,
        "energy_reverse_Wh_C": null,
        "energy_Wh_C_delta_ultimas_2": null,
        "energy_reverse_Wh_C_delta_ultimas_2": null,
        "voltage_V_D": null,
        "current_A_D": null,
        "power_W_D": null,
        "pf_D": null,
        "freq_Hz_D": null,
        "energy_Wh_D": null,
        "energy_reverse_Wh_D": null,
        "energy_Wh_D_delta_ultimas_2": null,
        "energy_reverse_Wh_D_delta_ultimas_2": null,
        "energy_Wh_delta_total_ultimas_2": 850,
        "energy_reverse_Wh_delta_total_ultimas_2": null,
        "consume10_11_Wh": 180.0,
        "consume12_13_Wh": 360.0,
        "consume13_14_Wh": 450.0,
        "consume15_16_Wh": 130.0,
        "consume16_17_Wh": 130.0,
        "consume17_18_Wh": 230.0,
        "consume19_20_Wh": 870.0,
        "consume22_23_Wh": 1330.0,
        "consume1_2_Wh": 2340.0,
        "consume4_5_Wh": 470.0,
        "consume5_6_Wh": 290.0,
        "consume7_8_Wh": 850.0,
        "consumo_ultimo_dia_Wh": 7630.0,
        "timestamp_inicio_consumos": "2026-07-03 10:00:00",
        "timestamp_fin_consumos": "2026-07-04 07:00:00"
      }
    }
  ]
}