{
  "type": "FeatureCollection",
  "features": [
    {
      "type": "Feature",
      "geometry": {
        "type": "Point",
        "coordinates": [
          -100.293008,
          25.651085
        ]
      },
      "properties": {
        "id_punto": "25.651085_-100.293008",
        "n_registros": 1625,
        "timestamp_ultimo": "2026-09-10 08:30:00",
        "timestamp_penultimo": "2026-09-10 04:02:00",
        "voltage_V_A": 0.0,
        "current_A_A": 0.0,
        "power_W_A": 0.0,
        "pf_A": 0.0,
        "freq_Hz_A": 0.0,
        "energy_Wh_A": 0,
        "energy_reverse_Wh_A": null,
        "energy_Wh_A_delta_ultimas_2": 0,
        "energy_reverse_Wh_A_delta_ultimas_2": null,
        "voltage_V_B": 0,
        "current_A_B": 0.0,
        "power_W_B": 0.0,
        "pf_B": 0.0,
        "freq_Hz_B": 0.0,
        "energy_Wh_B": 0,
        "energy_reverse_Wh_B": null,
        "energy_Wh_B_delta_ultimas_2": 0,
        "energy_reverse_Wh_B_delta_ultimas_2": null,
        "voltage_V_C": 0.0,
        "current_A_C": 0.0,
        "power_W_C": 0.0,
        "pf_C": 0.0,
        "freq_Hz_C": 0.0,
        "energy_Wh_C": 0,
        "energy_reverse_Wh_C": 0,
        "energy_Wh_C_delta_ultimas_2": 0,
        "energy_reverse_Wh_C_delta_ultimas_2": 0,
        "direction_C": "REVERSE",
        "voltage_V_D": 0.0,
        "current_A_D": 0.0,
        "power_W_D": 0.0,
        "pf_D": 0.0,
        "freq_Hz_D": 0.0,
        "energy_Wh_D": 0,
        "energy_reverse_Wh_D": 0,
        "energy_Wh_D_delta_ultimas_2": 0,
        "energy_reverse_Wh_D_delta_ultimas_2": 0,
        "direction_D": "FORWARD",
        "energy_Wh_delta_total_ultimas_2": 0,
        "energy_reverse_Wh_delta_total_ultimas_2": 0,
        "consume14_15_Wh": 0.0,
        "consume16_17_Wh": 0.0,
        "consume18_19_Wh": 0.0,
        "consume23_0_Wh": 0.0,
        "consume4_5_Wh": 0.0,
        "consume8_9_Wh": 0.0,
        "consumo_ultimo_dia_Wh": 0.0,
        "timestamp_inicio_consumos": "2026-09-09 14:00:00",
        "timestamp_fin_consumos": "2026-09-10 08:00:00"
      }
    }
  ]
}