{
  "type": "FeatureCollection",
  "features": [
    {
      "type": "Feature",
      "geometry": {
        "type": "Point",
        "coordinates": [
          -100.294446,
          25.649652
        ]
      },
      "properties": {
        "id_punto": "25.649652_-100.294446",
        "n_registros": 1,
        "timestamp_ultimo": "2026-05-11 16:27:00",
        "timestamp_penultimo": null,
        "voltage_V_A": 119.3,
        "current_A_A": 0.119,
        "power_W_A": 10.9,
        "pf_A": 0.76,
        "freq_Hz_A": 58.88,
        "energy_Wh_A": 36280,
        "energy_reverse_Wh_A": null,
        "energy_Wh_A_delta_ultimas_2": null,
        "energy_reverse_Wh_A_delta_ultimas_2": null,
        "voltage_V_B": 0,
        "current_A_B": 0.134,
        "power_W_B": 12.9,
        "pf_B": 0.8,
        "freq_Hz_B": 58.88,
        "energy_Wh_B": 37980,
        "energy_reverse_Wh_B": null,
        "energy_Wh_B_delta_ultimas_2": null,
        "energy_reverse_Wh_B_delta_ultimas_2": null,
        "voltage_V_C": null,
        "current_A_C": null,
        "power_W_C": null,
        "pf_C": null,
        "freq_Hz_C": null,
        "energy_Wh_C": null,
        "energy_reverse_Wh_C": null,
        "energy_Wh_C_delta_ultimas_2": null,
        "energy_reverse_Wh_C_delta_ultimas_2": null,
        "voltage_V_D": null,
        "current_A_D": null,
        "power_W_D": null,
        "pf_D": null,
        "freq_Hz_D": null,
        "energy_Wh_D": null,
        "energy_reverse_Wh_D": null,
        "energy_Wh_D_delta_ultimas_2": null,
        "energy_reverse_Wh_D_delta_ultimas_2": null,
        "energy_Wh_delta_total_ultimas_2": null,
        "energy_reverse_Wh_delta_total_ultimas_2": null
      }
    }
  ]
}