{
  "type": "FeatureCollection",
  "features": [
    {
      "type": "Feature",
      "geometry": {
        "type": "Point",
        "coordinates": [
          -100.279387,
          25.648629
        ]
      },
      "properties": {
        "id_punto": "25.648629_-100.279387",
        "n_registros": 990,
        "timestamp_ultimo": "2026-08-01 11:39:00",
        "timestamp_penultimo": "2026-08-01 10:34:00",
        "voltage_V_A": 124.1,
        "current_A_A": 5.095,
        "power_W_A": 623.8,
        "pf_A": 0.98,
        "freq_Hz_A": 59.15,
        "energy_Wh_A": 1291940,
        "energy_reverse_Wh_A": null,
        "energy_Wh_A_delta_ultimas_2": 900,
        "energy_reverse_Wh_A_delta_ultimas_2": null,
        "voltage_V_B": 120.1,
        "current_A_B": 4.39,
        "power_W_B": 500.3,
        "pf_B": 0.94,
        "freq_Hz_B": 58.93,
        "energy_Wh_B": 1498680,
        "energy_reverse_Wh_B": null,
        "energy_Wh_B_delta_ultimas_2": 720,
        "energy_reverse_Wh_B_delta_ultimas_2": null,
        "voltage_V_C": null,
        "current_A_C": null,
        "power_W_C": null,
        "pf_C": null,
        "freq_Hz_C": null,
        "energy_Wh_C": null,
        "energy_reverse_Wh_C": null,
        "energy_Wh_C_delta_ultimas_2": null,
        "energy_reverse_Wh_C_delta_ultimas_2": null,
        "voltage_V_D": null,
        "current_A_D": null,
        "power_W_D": null,
        "pf_D": null,
        "freq_Hz_D": null,
        "energy_Wh_D": null,
        "energy_reverse_Wh_D": null,
        "energy_Wh_D_delta_ultimas_2": null,
        "energy_reverse_Wh_D_delta_ultimas_2": null,
        "energy_Wh_delta_total_ultimas_2": 1620,
        "energy_reverse_Wh_delta_total_ultimas_2": null,
        "consume14_15_Wh": 120.0,
        "consume15_16_Wh": 110.0,
        "consume16_17_Wh": 750.0,
        "consume17_18_Wh": 3100.0,
        "consume20_21_Wh": 9820.0,
        "consume23_0_Wh": 8400.0,
        "consume2_3_Wh": 6110.0,
        "consume4_5_Wh": 6090.0,
        "consume5_6_Wh": 4280.0,
        "consume6_7_Wh": 2200.0,
        "consume8_9_Wh": 2550.0,
        "consume9_10_Wh": 2220.0,
        "consume10_11_Wh": 1840.0,
        "consume11_12_Wh": 1620.0,
        "consumo_ultimo_dia_Wh": 49210.0,
        "timestamp_inicio_consumos": "2026-07-31 14:00:00",
        "timestamp_fin_consumos": "2026-08-01 11:00:00"
      }
    }
  ]
}