{
  "type": "FeatureCollection",
  "features": [
    {
      "type": "Feature",
      "geometry": {
        "type": "Point",
        "coordinates": [
          -100.280182,
          25.651742
        ]
      },
      "properties": {
        "id_punto": "25.651742_-100.280182",
        "n_registros": 113,
        "timestamp_ultimo": "2026-05-07 15:59:00",
        "timestamp_penultimo": "2026-05-07 14:42:00",
        "voltage_V_A": 130.9,
        "current_A_A": 25.43,
        "power_W_A": 1878,
        "pf_A": 0.56,
        "freq_Hz_A": 59.1,
        "energy_Wh_A": 3421,
        "energy_reverse_Wh_A": null,
        "energy_Wh_A_delta_ultimas_2": 34,
        "energy_reverse_Wh_A_delta_ultimas_2": null,
        "voltage_V_B": 0,
        "current_A_B": 1.02,
        "power_W_B": 119,
        "pf_B": 0.88,
        "freq_Hz_B": 59.1,
        "energy_Wh_B": 339,
        "energy_reverse_Wh_B": null,
        "energy_Wh_B_delta_ultimas_2": 2,
        "energy_reverse_Wh_B_delta_ultimas_2": null,
        "voltage_V_C": null,
        "current_A_C": null,
        "power_W_C": null,
        "pf_C": null,
        "freq_Hz_C": null,
        "energy_Wh_C": null,
        "energy_reverse_Wh_C": null,
        "energy_Wh_C_delta_ultimas_2": null,
        "energy_reverse_Wh_C_delta_ultimas_2": null,
        "voltage_V_D": null,
        "current_A_D": null,
        "power_W_D": null,
        "pf_D": null,
        "freq_Hz_D": null,
        "energy_Wh_D": null,
        "energy_reverse_Wh_D": null,
        "energy_Wh_D_delta_ultimas_2": null,
        "energy_reverse_Wh_D_delta_ultimas_2": null,
        "energy_Wh_delta_total_ultimas_2": 36,
        "energy_reverse_Wh_delta_total_ultimas_2": null,
        "consume17_18": 0.008,
        "consume19_20": 0.017,
        "consume22_23": 0.05,
        "consume1_2": 0.064,
        "consume4_5": 0.042,
        "consume6_7": 0.039,
        "consume8_9": 0.043,
        "consume10_11": 0.016,
        "consume13_14": 0.038,
        "consume14_15": 0.028,
        "consume15_16": 0.036,
        "consumo_ultimo_dia_kWh": 0.381,
        "timestamp_inicio_consumos": "2026-05-06 17:00:00",
        "timestamp_fin_consumos": "2026-05-07 15:00:00"
      }
    }
  ]
}