{
  "type": "FeatureCollection",
  "features": [
    {
      "type": "Feature",
      "geometry": {
        "type": "Point",
        "coordinates": [
          -100.288357,
          25.646641
        ]
      },
      "properties": {
        "id_punto": "25.646641_-100.288357",
        "n_registros": 113,
        "timestamp_ultimo": "2026-05-07 15:59:00",
        "timestamp_penultimo": "2026-05-07 14:42:00",
        "voltage_V_A": 127.5,
        "current_A_A": 1.217,
        "power_W_A": 141.6,
        "pf_A": 0.91,
        "freq_Hz_A": 59.13,
        "energy_Wh_A": 176891,
        "energy_reverse_Wh_A": null,
        "energy_Wh_A_delta_ultimas_2": 54,
        "energy_reverse_Wh_A_delta_ultimas_2": null,
        "voltage_V_B": 127.6,
        "current_A_B": 0.042,
        "power_W_B": 3.9,
        "pf_B": 0.73,
        "freq_Hz_B": 59.13,
        "energy_Wh_B": 28100,
        "energy_reverse_Wh_B": null,
        "energy_Wh_B_delta_ultimas_2": 0,
        "energy_reverse_Wh_B_delta_ultimas_2": null,
        "voltage_V_C": null,
        "current_A_C": null,
        "power_W_C": null,
        "pf_C": null,
        "freq_Hz_C": null,
        "energy_Wh_C": null,
        "energy_reverse_Wh_C": null,
        "energy_Wh_C_delta_ultimas_2": null,
        "energy_reverse_Wh_C_delta_ultimas_2": null,
        "voltage_V_D": null,
        "current_A_D": null,
        "power_W_D": null,
        "pf_D": null,
        "freq_Hz_D": null,
        "energy_Wh_D": null,
        "energy_reverse_Wh_D": null,
        "energy_Wh_D_delta_ultimas_2": null,
        "energy_reverse_Wh_D_delta_ultimas_2": null,
        "energy_Wh_delta_total_ultimas_2": 54,
        "energy_reverse_Wh_delta_total_ultimas_2": null,
        "consume17_18": 0.142,
        "consume19_20": 0.046,
        "consume22_23": 0.398,
        "consume1_2": 0.173,
        "consume4_5": 0.224,
        "consume6_7": 0.086,
        "consume8_9": 0.082,
        "consume10_11": 0.039,
        "consume13_14": 0.049,
        "consume14_15": 0.042,
        "consume15_16": 0.054,
        "consumo_ultimo_dia_kWh": 1.335,
        "timestamp_inicio_consumos": "2026-05-06 17:00:00",
        "timestamp_fin_consumos": "2026-05-07 15:00:00"
      }
    }
  ]
}