{
  "type": "FeatureCollection",
  "features": [
    {
      "type": "Feature",
      "geometry": {
        "type": "Point",
        "coordinates": [
          -100.292083,
          25.658877
        ]
      },
      "properties": {
        "id_punto": "25.658877_-100.292083",
        "n_registros": 103,
        "timestamp_ultimo": "2026-05-06 17:31:00",
        "timestamp_penultimo": "2026-05-06 16:34:00",
        "voltage_V_A": 114.1,
        "current_A_A": 51.57,
        "power_W_A": 5822,
        "pf_A": 0.98,
        "freq_Hz_A": 58.95,
        "energy_Wh_A": 10151,
        "energy_reverse_Wh_A": null,
        "energy_Wh_A_delta_ultimas_2": 66,
        "energy_reverse_Wh_A_delta_ultimas_2": null,
        "voltage_V_B": 0,
        "current_A_B": 55.69,
        "power_W_B": 6303,
        "pf_B": 0.99,
        "freq_Hz_B": 58.95,
        "energy_Wh_B": 11220,
        "energy_reverse_Wh_B": null,
        "energy_Wh_B_delta_ultimas_2": 64,
        "energy_reverse_Wh_B_delta_ultimas_2": null,
        "voltage_V_C": null,
        "current_A_C": null,
        "power_W_C": null,
        "pf_C": null,
        "freq_Hz_C": null,
        "energy_Wh_C": null,
        "energy_reverse_Wh_C": null,
        "energy_Wh_C_delta_ultimas_2": null,
        "energy_reverse_Wh_C_delta_ultimas_2": null,
        "voltage_V_D": null,
        "current_A_D": null,
        "power_W_D": null,
        "pf_D": null,
        "freq_Hz_D": null,
        "energy_Wh_D": null,
        "energy_reverse_Wh_D": null,
        "energy_Wh_D_delta_ultimas_2": null,
        "energy_reverse_Wh_D_delta_ultimas_2": null,
        "energy_Wh_delta_total_ultimas_2": 130,
        "energy_reverse_Wh_delta_total_ultimas_2": null,
        "consume19_20": 0.257,
        "consume22_23": 0.453,
        "consume1_2": 0.364,
        "consume3_4": 0.277,
        "consume5_6": 0.202,
        "consume7_8": 0.19,
        "consume9_10": 0.245,
        "consume11_12": 0.196,
        "consume13_14": 0.301,
        "consume14_15": 0.301,
        "consume15_16": 0.151,
        "consume16_17": 0.114,
        "consume17_18": 0.13,
        "consumo_ultimo_dia_kWh": 3.181,
        "timestamp_inicio_consumos": "2026-05-05 19:00:00",
        "timestamp_fin_consumos": "2026-05-06 17:00:00"
      }
    }
  ]
}