{
  "type": "FeatureCollection",
  "features": [
    {
      "type": "Feature",
      "geometry": {
        "type": "Point",
        "coordinates": [
          -100.294446,
          25.649652
        ]
      },
      "properties": {
        "id_punto": "25.649652_-100.294446",
        "n_registros": 580,
        "timestamp_ultimo": "2026-07-09 17:49:00",
        "timestamp_penultimo": "2026-07-09 16:36:00",
        "voltage_V_A": 119.8,
        "current_A_A": 6.082,
        "power_W_A": 713.3,
        "pf_A": 0.97,
        "freq_Hz_A": 58.9,
        "energy_Wh_A": 640700,
        "energy_reverse_Wh_A": null,
        "energy_Wh_A_delta_ultimas_2": 1450,
        "energy_reverse_Wh_A_delta_ultimas_2": null,
        "voltage_V_B": 0,
        "current_A_B": 6.126,
        "power_W_B": 723.2,
        "pf_B": 0.98,
        "freq_Hz_B": 58.9,
        "energy_Wh_B": 657880,
        "energy_reverse_Wh_B": null,
        "energy_Wh_B_delta_ultimas_2": 1460,
        "energy_reverse_Wh_B_delta_ultimas_2": null,
        "voltage_V_C": null,
        "current_A_C": null,
        "power_W_C": null,
        "pf_C": null,
        "freq_Hz_C": null,
        "energy_Wh_C": null,
        "energy_reverse_Wh_C": null,
        "energy_Wh_C_delta_ultimas_2": null,
        "energy_reverse_Wh_C_delta_ultimas_2": null,
        "voltage_V_D": null,
        "current_A_D": null,
        "power_W_D": null,
        "pf_D": null,
        "freq_Hz_D": null,
        "energy_Wh_D": null,
        "energy_reverse_Wh_D": null,
        "energy_Wh_D_delta_ultimas_2": null,
        "energy_reverse_Wh_D_delta_ultimas_2": null,
        "energy_Wh_delta_total_ultimas_2": 2910,
        "energy_reverse_Wh_delta_total_ultimas_2": null,
        "consume2_3_Wh": 8000.0,
        "consume6_7_Wh": 3020.0,
        "consume9_10_Wh": 450.0,
        "consume11_12_Wh": 560.0,
        "consume13_14_Wh": 2290.0,
        "consume14_15_Wh": 1300.0,
        "consume16_17_Wh": 3840.0,
        "consume17_18_Wh": 2910.0,
        "consumo_ultimo_dia_Wh": 22370.0,
        "timestamp_inicio_consumos": "2026-07-09 02:00:00",
        "timestamp_fin_consumos": "2026-07-09 17:00:00"
      }
    }
  ]
}