{
  "type": "FeatureCollection",
  "features": [
    {
      "type": "Feature",
      "geometry": {
        "type": "Point",
        "coordinates": [
          -100.278294,
          25.650309
        ]
      },
      "properties": {
        "id_punto": "25.650309_-100.278294",
        "n_registros": 105,
        "timestamp_ultimo": "2026-05-06 22:47:00",
        "timestamp_penultimo": "2026-05-06 19:19:00",
        "voltage_V_A": 121.3,
        "current_A_A": 47.35,
        "power_W_A": 4930,
        "pf_A": 0.85,
        "freq_Hz_A": 58.88,
        "energy_Wh_A": 5599,
        "energy_reverse_Wh_A": null,
        "energy_Wh_A_delta_ultimas_2": 115,
        "energy_reverse_Wh_A_delta_ultimas_2": null,
        "voltage_V_B": 0,
        "current_A_B": 47.36,
        "power_W_B": 4944,
        "pf_B": 0.85,
        "freq_Hz_B": 58.88,
        "energy_Wh_B": 5611,
        "energy_reverse_Wh_B": null,
        "energy_Wh_B_delta_ultimas_2": 115,
        "energy_reverse_Wh_B_delta_ultimas_2": null,
        "voltage_V_C": null,
        "current_A_C": null,
        "power_W_C": null,
        "pf_C": null,
        "freq_Hz_C": null,
        "energy_Wh_C": null,
        "energy_reverse_Wh_C": null,
        "energy_Wh_C_delta_ultimas_2": null,
        "energy_reverse_Wh_C_delta_ultimas_2": null,
        "voltage_V_D": null,
        "current_A_D": null,
        "power_W_D": null,
        "pf_D": null,
        "freq_Hz_D": null,
        "energy_Wh_D": null,
        "energy_reverse_Wh_D": null,
        "energy_Wh_D_delta_ultimas_2": null,
        "energy_reverse_Wh_D_delta_ultimas_2": null,
        "energy_Wh_delta_total_ultimas_2": 230,
        "energy_reverse_Wh_delta_total_ultimas_2": null,
        "consume3_4": 0.103,
        "consume5_6": 0.066,
        "consume7_8": 0.064,
        "consume9_10": 0.08,
        "consume11_12": 0.074,
        "consume13_14": 0.088,
        "consume14_15": 0.102,
        "consume15_16": 0.052,
        "consume16_17": 0.034,
        "consume17_18": 0.052,
        "consume19_20": 0.106,
        "consume22_23": 0.23,
        "consumo_ultimo_dia_kWh": 1.051,
        "timestamp_inicio_consumos": "2026-05-06 03:00:00",
        "timestamp_fin_consumos": "2026-05-06 22:00:00"
      }
    }
  ]
}