{
  "type": "FeatureCollection",
  "features": [
    {
      "type": "Feature",
      "geometry": {
        "type": "Point",
        "coordinates": [
          -100.29505,
          25.618982
        ]
      },
      "properties": {
        "id_punto": "25.618982_-100.29505",
        "n_registros": 269,
        "timestamp_ultimo": "2026-05-26 16:43:00",
        "timestamp_penultimo": "2026-05-26 15:18:00",
        "voltage_V_A": 131.7,
        "current_A_A": 9.194,
        "power_W_A": 510.2,
        "pf_A": 0.42,
        "freq_Hz_A": 58.85,
        "energy_Wh_A": 36382,
        "energy_reverse_Wh_A": 19308,
        "energy_Wh_A_delta_ultimas_2": 11,
        "energy_reverse_Wh_A_delta_ultimas_2": 46,
        "direction_A": "FORWARD",
        "voltage_V_B": 131.7,
        "current_A_B": 3.904,
        "power_W_B": 508.7,
        "pf_B": 0.98,
        "freq_Hz_B": 58.85,
        "energy_Wh_B": 22012,
        "energy_reverse_Wh_B": 28400,
        "energy_Wh_B_delta_ultimas_2": 44,
        "energy_reverse_Wh_B_delta_ultimas_2": 10,
        "direction_B": "REVERSE",
        "voltage_V_C": null,
        "current_A_C": null,
        "power_W_C": null,
        "pf_C": null,
        "freq_Hz_C": null,
        "energy_Wh_C": null,
        "energy_reverse_Wh_C": null,
        "energy_Wh_C_delta_ultimas_2": null,
        "energy_reverse_Wh_C_delta_ultimas_2": null,
        "voltage_V_D": null,
        "current_A_D": null,
        "power_W_D": null,
        "pf_D": null,
        "freq_Hz_D": null,
        "energy_Wh_D": null,
        "energy_reverse_Wh_D": null,
        "energy_Wh_D_delta_ultimas_2": null,
        "energy_reverse_Wh_D_delta_ultimas_2": null,
        "energy_Wh_delta_total_ultimas_2": 55,
        "energy_reverse_Wh_delta_total_ultimas_2": 56,
        "consume19_20_Wh": 26.0,
        "consume23_0_Wh": 469.0,
        "consume3_4_Wh": 298.0,
        "consume10_11_Wh": 236.0,
        "consume13_14_Wh": 111.0,
        "consume15_16_Wh": 143.0,
        "consume16_17_Wh": 55.0,
        "consumo_ultimo_dia_Wh": 1338.0,
        "timestamp_inicio_consumos": "2026-05-25 19:00:00",
        "timestamp_fin_consumos": "2026-05-26 16:00:00"
      }
    }
  ]
}