{
  "type": "FeatureCollection",
  "features": [
    {
      "type": "Feature",
      "geometry": {
        "type": "Point",
        "coordinates": [
          -100.279387,
          25.648629
        ]
      },
      "properties": {
        "id_punto": "25.648629_-100.279387",
        "n_registros": 119,
        "timestamp_ultimo": "2026-05-08 03:22:00",
        "timestamp_penultimo": "2026-05-08 01:54:00",
        "voltage_V_A": 126.8,
        "current_A_A": 47.97,
        "power_W_A": 5723,
        "pf_A": 0.93,
        "freq_Hz_A": 59.18,
        "energy_Wh_A": 47251,
        "energy_reverse_Wh_A": null,
        "energy_Wh_A_delta_ultimas_2": 53,
        "energy_reverse_Wh_A_delta_ultimas_2": null,
        "voltage_V_B": 124.4,
        "current_A_B": 51.77,
        "power_W_B": 5949,
        "pf_B": 0.92,
        "freq_Hz_B": 58.96,
        "energy_Wh_B": 63637,
        "energy_reverse_Wh_B": null,
        "energy_Wh_B_delta_ultimas_2": 56,
        "energy_reverse_Wh_B_delta_ultimas_2": null,
        "voltage_V_C": null,
        "current_A_C": null,
        "power_W_C": null,
        "pf_C": null,
        "freq_Hz_C": null,
        "energy_Wh_C": null,
        "energy_reverse_Wh_C": null,
        "energy_Wh_C_delta_ultimas_2": null,
        "energy_reverse_Wh_C_delta_ultimas_2": null,
        "voltage_V_D": null,
        "current_A_D": null,
        "power_W_D": null,
        "pf_D": null,
        "freq_Hz_D": null,
        "energy_Wh_D": null,
        "energy_reverse_Wh_D": null,
        "energy_Wh_D_delta_ultimas_2": null,
        "energy_reverse_Wh_D_delta_ultimas_2": null,
        "energy_Wh_delta_total_ultimas_2": 109,
        "energy_reverse_Wh_delta_total_ultimas_2": null,
        "consume6_7": 0.112,
        "consume8_9": 0.252,
        "consume10_11": 0.016,
        "consume13_14": 0.022,
        "consume14_15": 0.015,
        "consume15_16": 0.011,
        "consume17_18": 0.01,
        "consume18_19": 0.009,
        "consume21_22": 0.279,
        "consume0_1": 0.134,
        "consume1_2": 0.059,
        "consume3_4": 0.109,
        "consumo_ultimo_dia_kWh": 1.028,
        "timestamp_inicio_consumos": "2026-05-07 06:00:00",
        "timestamp_fin_consumos": "2026-05-08 03:00:00"
      }
    }
  ]
}